{
"type": "FeatureCollection",
"name": "Ranh_xn1",
"features": [
{ "type": "Feature", "properties": { "NAME": "", "LAYER": "", "KML_STYLE": "", "KML_FOLDER": "", "tessellate": 0, "ELEVATION": 0.0, "open": 0, "x": 3402586.92, "y": 488047.22 }, "geometry": { "type": "GeometryCollection", "geometries": [ { "type": "Polygon", "coordinates": [ [ [ 106.832575, 13.401943 ], [ 106.832148, 13.402486 ], [ 106.831726, 13.401949 ], [ 106.832575, 13.401943 ] ] ] }, { "type": "MultiLineString", "coordinates": [ [ [ 106.943682, 13.437213 ], [ 106.94049, 13.437239 ], [ 106.937957, 13.43726 ], [ 106.935934, 13.437276 ], [ 106.9359, 13.437276 ], [ 106.935824, 13.437277 ], [ 106.935736, 13.437278 ], [ 106.931194, 13.437315 ], [ 106.930762, 13.437319 ], [ 106.924197, 13.437372 ], [ 106.917447, 13.437426 ], [ 106.917379, 13.437427 ], [ 106.910372, 13.437484 ], [ 106.910294, 13.437485 ], [ 106.903228, 13.437542 ], [ 106.903228, 13.43753 ], [ 106.903215, 13.436537 ], [ 106.903199, 13.43536 ], [ 106.903183, 13.434183 ], [ 106.903166, 13.432908 ], [ 106.903151, 13.431859 ], [ 106.90315, 13.431767 ], [ 106.903138, 13.430848 ], [ 106.903123, 13.42977 ], [ 106.903109, 13.428692 ], [ 106.903093, 13.427515 ], [ 106.903076, 13.426254 ], [ 106.903063, 13.425259 ], [ 106.903046, 13.423984 ], [ 106.90303, 13.422807 ], [ 106.903014, 13.421631 ], [ 106.903, 13.420582 ], [ 106.902998, 13.420455 ], [ 106.902982, 13.419278 ], [ 106.902967, 13.418198 ], [ 106.902953, 13.417119 ], [ 106.90294, 13.416139 ], [ 106.902926, 13.41512 ], [ 106.902778, 13.415122 ], [ 106.896171, 13.415184 ], [ 106.89576, 13.415188 ], [ 106.893625, 13.415208 ], [ 106.893388, 13.415015 ], [ 106.888832, 13.415048 ], [ 106.888797, 13.415048 ], [ 106.8819, 13.415081 ], [ 106.881759, 13.415082 ], [ 106.874739, 13.415132 ], [ 106.874751, 13.416139 ], [ 106.874762, 13.417119 ], [ 106.874774, 13.418198 ], [ 106.874786, 13.419278 ], [ 106.874799, 13.420455 ], [ 106.874802, 13.420742 ], [ 106.874812, 13.421631 ], [ 106.874826, 13.422807 ], [ 106.874839, 13.423984 ], [ 106.874853, 13.425259 ], [ 106.874866, 13.426436 ], [ 106.874867, 13.426488 ], [ 106.874879, 13.427515 ], [ 106.874892, 13.428692 ], [ 106.874904, 13.42977 ], [ 106.874916, 13.430848 ], [ 106.874929, 13.431998 ], [ 106.874939, 13.432908 ], [ 106.874954, 13.434183 ], [ 106.874967, 13.43536 ], [ 106.87498, 13.436537 ], [ 106.874993, 13.43768 ], [ 106.879544, 13.437689 ], [ 106.879506, 13.438 ], [ 106.879612, 13.438598 ], [ 106.879667, 13.438911 ], [ 106.879904, 13.439774 ], [ 106.879958, 13.439971 ], [ 106.880014, 13.440852 ], [ 106.880024, 13.441016 ], [ 106.877966, 13.441853 ], [ 106.878059, 13.442029 ], [ 106.878684, 13.443206 ], [ 106.879357, 13.444475 ], [ 106.87988, 13.44546 ], [ 106.879978, 13.445645 ], [ 106.880402, 13.446257 ], [ 106.880491, 13.446873 ], [ 106.879043, 13.446793 ], [ 106.878987, 13.446871 ], [ 106.879338, 13.447617 ], [ 106.879892, 13.448793 ], [ 106.880353, 13.449773 ], [ 106.881044, 13.45124 ], [ 106.882086, 13.453454 ], [ 106.882095, 13.453473 ], [ 106.882555, 13.454478 ], [ 106.882845, 13.455113 ], [ 106.88256, 13.455556 ], [ 106.8821, 13.456273 ], [ 106.881095, 13.457837 ], [ 106.881099, 13.457957 ], [ 106.881134, 13.458876 ], [ 106.881126, 13.458891 ], [ 106.880576, 13.459948 ], [ 106.880001, 13.461054 ], [ 106.879291, 13.462421 ], [ 106.879217, 13.462563 ], [ 106.879127, 13.462685 ], [ 106.878819, 13.463597 ], [ 106.878431, 13.464743 ], [ 106.878089, 13.465754 ], [ 106.877691, 13.466932 ], [ 106.877655, 13.467039 ], [ 106.877362, 13.467912 ], [ 106.877306, 13.468078 ], [ 106.877428, 13.469187 ], [ 106.877505, 13.469884 ], [ 106.877648, 13.470364 ], [ 106.877706, 13.470557 ], [ 106.878052, 13.471713 ], [ 106.878294, 13.472522 ], [ 106.878617, 13.4736 ], [ 106.87894, 13.474679 ], [ 106.879208, 13.475573 ], [ 106.879409, 13.475855 ], [ 106.87981, 13.476417 ], [ 106.879907, 13.477129 ], [ 106.882201, 13.477129 ], [ 106.889226, 13.477129 ], [ 106.891789, 13.477129 ], [ 106.892609, 13.475855 ], [ 106.893365, 13.474679 ], [ 106.894059, 13.4736 ], [ 106.894753, 13.472522 ], [ 106.895342, 13.471606 ], [ 106.896084, 13.470452 ], [ 106.896141, 13.470364 ], [ 106.896281, 13.470147 ], [ 106.8966, 13.469704 ], [ 106.896972, 13.469187 ], [ 106.897889, 13.467912 ], [ 106.898594, 13.466932 ], [ 106.898682, 13.466809 ], [ 106.899726, 13.466088 ], [ 106.900646, 13.465765 ], [ 106.900708, 13.465754 ], [ 106.901429, 13.465625 ], [ 106.901992, 13.465609 ], [ 106.902544, 13.465266 ], [ 106.903162, 13.465057 ], [ 106.90339, 13.465067 ], [ 106.903616, 13.465076 ], [ 106.903617, 13.465167 ], [ 106.903696, 13.465125 ], [ 106.903695, 13.465079 ], [ 106.903693, 13.46499 ], [ 106.903721, 13.464968 ], [ 106.90374, 13.464961 ], [ 106.90385, 13.464948 ], [ 106.903943, 13.464943 ], [ 106.904015, 13.464939 ], [ 106.904099, 13.464931 ], [ 106.904182, 13.46492 ], [ 106.904251, 13.464914 ], [ 106.904368, 13.464906 ], [ 106.904479, 13.464897 ], [ 106.904626, 13.464886 ], [ 106.904776, 13.464875 ], [ 106.904866, 13.464869 ], [ 106.904949, 13.464864 ], [ 106.90507, 13.464857 ], [ 106.905453, 13.464835 ], [ 106.905896, 13.464825 ], [ 106.906164, 13.46482 ], [ 106.906359, 13.464813 ], [ 106.906587, 13.4648 ], [ 106.90676, 13.46478 ], [ 106.907035, 13.464749 ], [ 106.907287, 13.464727 ], [ 106.907365, 13.464724 ], [ 106.907424, 13.464747 ], [ 106.907476, 13.464793 ], [ 106.907541, 13.464847 ], [ 106.907628, 13.464925 ], [ 106.907729, 13.464992 ], [ 106.90784, 13.465058 ], [ 106.90798, 13.465116 ], [ 106.908109, 13.46516 ], [ 106.908444, 13.465301 ], [ 106.908516, 13.46532 ], [ 106.908606, 13.465339 ], [ 106.908889, 13.46541 ], [ 106.909043, 13.465446 ], [ 106.909118, 13.465469 ], [ 106.90919, 13.4655 ], [ 106.909272, 13.465527 ], [ 106.909383, 13.465578 ], [ 106.909579, 13.465664 ], [ 106.909654, 13.465684 ], [ 106.909697, 13.465682 ], [ 106.909751, 13.465663 ], [ 106.909801, 13.465624 ], [ 106.909849, 13.465583 ], [ 106.909941, 13.465526 ], [ 106.91007, 13.465494 ], [ 106.910121, 13.4655 ], [ 106.910182, 13.465501 ], [ 106.910269, 13.465527 ], [ 106.910284, 13.465531 ], [ 106.910397, 13.465586 ], [ 106.910579, 13.465661 ], [ 106.910593, 13.465666 ], [ 106.910739, 13.465717 ], [ 106.910832, 13.465744 ], [ 106.910918, 13.465769 ], [ 106.911173, 13.465845 ], [ 106.911387, 13.465928 ], [ 106.911517, 13.465991 ], [ 106.911581, 13.466021 ], [ 106.911636, 13.466055 ], [ 106.911753, 13.466147 ], [ 106.912116, 13.466471 ], [ 106.912337, 13.466712 ], [ 106.912596, 13.467006 ], [ 106.912856, 13.467345 ], [ 106.913132, 13.467676 ], [ 106.91322, 13.467749 ], [ 106.913289, 13.467788 ], [ 106.913365, 13.467799 ], [ 106.913453, 13.467792 ], [ 106.913567, 13.46776 ], [ 106.91414, 13.467549 ], [ 106.914928, 13.467258 ], [ 106.914994, 13.467232 ], [ 106.915092, 13.467218 ], [ 106.915303, 13.46723 ], [ 106.915545, 13.467225 ], [ 106.915627, 13.467223 ], [ 106.915668, 13.467243 ], [ 106.915687, 13.467267 ], [ 106.915697, 13.46732 ], [ 106.915679, 13.467391 ], [ 106.915679, 13.467476 ], [ 106.915679, 13.467519 ], [ 106.915695, 13.467559 ], [ 106.915758, 13.467613 ], [ 106.915875, 13.46765 ], [ 106.916351, 13.46772 ], [ 106.916601, 13.467754 ], [ 106.916692, 13.46775 ], [ 106.916747, 13.467726 ], [ 106.916847, 13.467608 ], [ 106.917051, 13.467394 ], [ 106.917294, 13.467131 ], [ 106.917591, 13.466814 ], [ 106.917768, 13.466623 ], [ 106.917854, 13.466466 ], [ 106.91793, 13.466204 ], [ 106.917967, 13.465998 ], [ 106.917965, 13.465903 ], [ 106.917944, 13.465857 ], [ 106.917944, 13.46577 ], [ 106.917955, 13.465744 ], [ 106.918068, 13.465488 ], [ 106.91813, 13.465396 ], [ 106.918055, 13.465291 ], [ 106.917553, 13.464587 ], [ 106.917552, 13.464375 ], [ 106.918209, 13.464367 ], [ 106.918331, 13.464356 ], [ 106.918297, 13.463831 ], [ 106.918318, 13.463725 ], [ 106.918375, 13.463662 ], [ 106.918729, 13.463362 ], [ 106.918956, 13.46317 ], [ 106.919745, 13.462474 ], [ 106.919937, 13.462337 ], [ 106.920115, 13.46228 ], [ 106.920306, 13.462287 ], [ 106.920923, 13.462379 ], [ 106.921164, 13.462429 ], [ 106.921343, 13.462412 ], [ 106.921452, 13.462383 ], [ 106.921732, 13.462258 ], [ 106.921959, 13.462157 ], [ 106.922016, 13.462107 ], [ 106.921998, 13.462024 ], [ 106.92194, 13.461931 ], [ 106.92179, 13.461722 ], [ 106.921632, 13.461475 ], [ 106.921571, 13.461279 ], [ 106.921562, 13.461066 ], [ 106.92156, 13.46102 ], [ 106.921626, 13.460775 ], [ 106.921876, 13.460291 ], [ 106.921999, 13.459952 ], [ 106.922002, 13.459941 ], [ 106.922138, 13.459481 ], [ 106.922165, 13.459048 ], [ 106.922199, 13.458805 ], [ 106.922207, 13.458745 ], [ 106.922215, 13.458691 ], [ 106.922353, 13.458524 ], [ 106.922508, 13.458454 ], [ 106.922711, 13.458386 ], [ 106.922947, 13.458388 ], [ 106.923052, 13.458379 ], [ 106.923232, 13.458356 ], [ 106.923419, 13.458337 ], [ 106.923576, 13.458318 ], [ 106.923705, 13.458323 ], [ 106.923852, 13.458307 ], [ 106.924026, 13.458256 ], [ 106.924126, 13.458246 ], [ 106.924227, 13.45822 ], [ 106.924308, 13.458139 ], [ 106.924357, 13.458036 ], [ 106.924479, 13.457667 ], [ 106.924514, 13.457627 ], [ 106.924544, 13.457593 ], [ 106.924692, 13.457426 ], [ 106.924965, 13.45721 ], [ 106.925126, 13.457062 ], [ 106.925637, 13.45685 ], [ 106.925988, 13.456833 ], [ 106.926526, 13.456836 ], [ 106.926925, 13.456844 ], [ 106.927017, 13.456833 ], [ 106.927104, 13.456856 ], [ 106.927295, 13.456879 ], [ 106.927643, 13.456749 ], [ 106.927869, 13.456656 ], [ 106.928175, 13.456541 ], [ 106.928187, 13.456537 ], [ 106.928309, 13.456525 ], [ 106.928343, 13.45654 ], [ 106.928421, 13.456575 ], [ 106.928701, 13.456755 ], [ 106.928914, 13.45687 ], [ 106.929052, 13.45692 ], [ 106.929274, 13.45689 ], [ 106.92949, 13.456823 ], [ 106.929609, 13.456773 ], [ 106.929778, 13.456719 ], [ 106.929947, 13.456715 ], [ 106.930037, 13.456684 ], [ 106.930087, 13.456635 ], [ 106.930143, 13.456555 ], [ 106.930145, 13.456527 ], [ 106.930158, 13.456317 ], [ 106.93015, 13.456134 ], [ 106.930149, 13.45599 ], [ 106.93011, 13.455892 ], [ 106.930062, 13.455848 ], [ 106.930057, 13.45582 ], [ 106.930058, 13.455701 ], [ 106.930052, 13.455533 ], [ 106.930091, 13.455489 ], [ 106.930106, 13.455472 ], [ 106.930281, 13.455428 ], [ 106.93057, 13.455318 ], [ 106.930774, 13.455205 ], [ 106.931036, 13.455037 ], [ 106.931052, 13.455029 ], [ 106.931245, 13.45493 ], [ 106.931419, 13.454866 ], [ 106.931439, 13.454862 ], [ 106.931681, 13.45481 ], [ 106.932019, 13.454757 ], [ 106.932367, 13.4547 ], [ 106.932586, 13.454649 ], [ 106.932761, 13.454561 ], [ 106.932901, 13.45446 ], [ 106.933096, 13.454377 ], [ 106.933267, 13.454334 ], [ 106.933394, 13.454348 ], [ 106.933437, 13.454353 ], [ 106.93359, 13.454404 ], [ 106.933859, 13.454572 ], [ 106.934048, 13.45465 ], [ 106.934311, 13.454699 ], [ 106.934604, 13.454716 ], [ 106.934721, 13.454717 ], [ 106.934811, 13.45467 ], [ 106.935105, 13.45463 ], [ 106.935386, 13.454616 ], [ 106.935786, 13.454597 ], [ 106.935875, 13.4546 ], [ 106.935892, 13.454598 ], [ 106.935957, 13.454615 ] ], [ [ 106.796684, 13.402201 ], [ 106.796713, 13.395339 ], [ 106.796757, 13.388565 ], [ 106.796757, 13.384007 ], [ 106.796551, 13.379543 ], [ 106.796504, 13.375003 ], [ 106.796463, 13.371657 ] ], [ [ 106.832574, 13.401851 ], [ 106.832569, 13.401822 ] ], [ [ 106.832575, 13.401943 ], [ 106.770875, 13.402387 ], [ 106.770818, 13.402372 ], [ 106.770811, 13.402344 ], [ 106.770811, 13.402336 ], [ 106.770815, 13.402285 ], [ 106.770822, 13.401818 ], [ 106.770823, 13.401808 ], [ 106.770832, 13.401629 ], [ 106.770833, 13.401602 ], [ 106.770831, 13.401563 ], [ 106.770816, 13.401355 ], [ 106.770811, 13.401311 ], [ 106.770802, 13.401254 ], [ 106.770799, 13.401212 ], [ 106.770799, 13.401185 ], [ 106.770759, 13.400985 ], [ 106.770755, 13.400975 ], [ 106.77072, 13.400905 ], [ 106.770517, 13.400708 ], [ 106.77024, 13.400635 ], [ 106.77023, 13.400636 ], [ 106.770206, 13.400636 ], [ 106.770158, 13.400631 ], [ 106.770085, 13.400617 ], [ 106.770013, 13.40059 ], [ 106.769978, 13.400564 ], [ 106.769947, 13.400534 ], [ 106.769901, 13.400477 ], [ 106.769868, 13.400422 ], [ 106.769861, 13.40041 ], [ 106.769825, 13.400337 ], [ 106.769797, 13.40022 ], [ 106.769797, 13.400198 ], [ 106.769722, 13.399935 ], [ 106.769605, 13.399797 ], [ 106.769575, 13.399771 ], [ 106.769489, 13.399712 ], [ 106.769212, 13.399639 ], [ 106.769036, 13.399671 ], [ 106.769009, 13.399677 ], [ 106.769001, 13.39968 ], [ 106.768992, 13.399682 ], [ 106.768987, 13.399684 ], [ 106.768964, 13.399689 ], [ 106.768933, 13.399693 ], [ 106.768923, 13.399692 ], [ 106.76884, 13.399679 ], [ 106.768752, 13.39965 ], [ 106.768575, 13.399555 ], [ 106.768345, 13.39949 ], [ 106.768187, 13.399481 ], [ 106.768153, 13.399476 ], [ 106.767862, 13.399422 ], [ 106.767812, 13.399415 ], [ 106.767682, 13.399402 ], [ 106.767593, 13.399375 ], [ 106.767529, 13.399324 ], [ 106.767465, 13.399254 ], [ 106.767416, 13.399172 ], [ 106.76739, 13.399111 ], [ 106.767337, 13.398918 ], [ 106.767328, 13.398855 ], [ 106.767326, 13.398733 ], [ 106.767354, 13.398616 ], [ 106.767429, 13.398464 ], [ 106.767435, 13.398452 ], [ 106.767554, 13.398252 ], [ 106.767568, 13.39823 ], [ 106.767698, 13.398052 ], [ 106.767729, 13.398005 ], [ 106.767746, 13.397974 ], [ 106.767844, 13.397776 ], [ 106.767868, 13.397721 ], [ 106.767879, 13.397692 ], [ 106.767948, 13.397517 ], [ 106.767987, 13.397346 ], [ 106.767995, 13.397191 ], [ 106.767996, 13.397163 ], [ 106.767978, 13.397029 ], [ 106.767906, 13.396748 ], [ 106.767903, 13.396736 ], [ 106.767897, 13.396713 ], [ 106.767798, 13.396333 ], [ 106.767789, 13.396268 ], [ 106.767783, 13.395874 ], [ 106.767774, 13.395786 ], [ 106.767757, 13.395693 ], [ 106.767691, 13.39552 ], [ 106.767657, 13.395469 ], [ 106.767603, 13.395396 ], [ 106.767573, 13.395307 ], [ 106.767554, 13.395121 ], [ 106.767554, 13.395119 ], [ 106.767558, 13.395083 ], [ 106.767585, 13.394937 ], [ 106.767605, 13.394885 ], [ 106.767629, 13.394852 ], [ 106.767704, 13.394582 ], [ 106.767629, 13.394312 ], [ 106.767426, 13.394115 ], [ 106.767149, 13.394042 ], [ 106.767145, 13.394042 ], [ 106.766676, 13.394046 ], [ 106.766609, 13.394038 ], [ 106.766252, 13.393943 ], [ 106.766238, 13.39394 ], [ 106.765996, 13.393882 ], [ 106.765975, 13.393877 ], [ 106.765737, 13.393801 ], [ 106.765717, 13.393794 ], [ 106.765614, 13.393751 ], [ 106.765552, 13.393691 ], [ 106.765461, 13.393454 ], [ 106.765441, 13.393413 ], [ 106.765407, 13.393291 ], [ 106.765408, 13.393276 ], [ 106.765333, 13.393006 ], [ 106.765173, 13.392835 ], [ 106.765166, 13.39283 ], [ 106.765157, 13.392824 ], [ 106.765061, 13.392747 ], [ 106.765041, 13.39273 ], [ 106.764998, 13.392688 ], [ 106.7649, 13.392613 ], [ 106.76482, 13.392564 ], [ 106.764807, 13.392557 ], [ 106.76479, 13.392547 ], [ 106.764658, 13.392477 ], [ 106.764627, 13.392457 ], [ 106.764573, 13.392414 ], [ 106.764508, 13.39234 ], [ 106.764457, 13.392254 ], [ 106.764455, 13.392251 ], [ 106.764451, 13.392244 ], [ 106.764428, 13.392199 ], [ 106.764418, 13.392182 ], [ 106.764412, 13.39217 ], [ 106.764342, 13.392048 ], [ 106.764319, 13.391999 ], [ 106.764275, 13.391873 ], [ 106.764267, 13.391846 ], [ 106.764235, 13.39171 ], [ 106.76423, 13.391684 ], [ 106.764215, 13.39157 ], [ 106.764213, 13.391536 ], [ 106.764211, 13.391262 ], [ 106.764206, 13.391193 ], [ 106.764188, 13.391062 ], [ 106.764147, 13.390768 ], [ 106.764147, 13.390767 ], [ 106.764154, 13.390715 ], [ 106.764158, 13.390702 ], [ 106.764176, 13.390566 ], [ 106.764101, 13.390296 ], [ 106.764075, 13.390252 ], [ 106.764073, 13.390247 ], [ 106.764044, 13.390205 ], [ 106.764012, 13.390161 ], [ 106.76396, 13.39009 ], [ 106.763881, 13.390006 ], [ 106.763817, 13.389949 ], [ 106.763795, 13.389922 ], [ 106.763791, 13.389914 ], [ 106.763746, 13.389792 ], [ 106.763728, 13.389698 ], [ 106.763727, 13.389513 ], [ 106.76373, 13.389473 ], [ 106.76374, 13.389406 ], [ 106.763747, 13.389325 ], [ 106.763746, 13.389291 ], [ 106.763737, 13.38915 ], [ 106.763736, 13.389144 ], [ 106.763726, 13.389011 ], [ 106.763707, 13.388907 ], [ 106.763688, 13.388835 ], [ 106.76368, 13.388786 ], [ 106.763681, 13.388785 ], [ 106.763676, 13.388751 ], [ 106.763662, 13.379755 ], [ 106.76366, 13.379739 ], [ 106.763662, 13.379732 ], [ 106.763662, 13.379731 ], [ 106.763655, 13.375231 ], [ 106.763655, 13.37523 ], [ 106.763655, 13.375201 ], [ 106.763655, 13.375029 ], [ 106.763672, 13.374967 ], [ 106.763691, 13.374948 ], [ 106.763693, 13.374948 ], [ 106.763933, 13.374885 ], [ 106.764071, 13.37483 ], [ 106.764114, 13.374802 ], [ 106.764172, 13.374763 ], [ 106.764198, 13.374749 ], [ 106.764401, 13.374552 ], [ 106.76447, 13.374362 ], [ 106.764632, 13.373283 ], [ 106.764638, 13.373203 ], [ 106.764597, 13.373 ], [ 106.76456, 13.37291 ], [ 106.764541, 13.372829 ], [ 106.764537, 13.372793 ], [ 106.764539, 13.37277 ], [ 106.764567, 13.372633 ], [ 106.764583, 13.37255 ], [ 106.764594, 13.372489 ], [ 106.764608, 13.372443 ], [ 106.76464, 13.372357 ], [ 106.764653, 13.372321 ], [ 106.764723, 13.372083 ], [ 106.764741, 13.372043 ], [ 106.764755, 13.372022 ], [ 106.764788, 13.371974 ], [ 106.764825, 13.371898 ], [ 106.764841, 13.371857 ], [ 106.76486, 13.371818 ], [ 106.764868, 13.37181 ], [ 106.764932, 13.371793 ], [ 106.768553, 13.371785 ], [ 106.773159, 13.371774 ], [ 106.777821, 13.371762 ], [ 106.78243, 13.371751 ], [ 106.782434, 13.371751 ], [ 106.787017, 13.371713 ], [ 106.787019, 13.371713 ], [ 106.791641, 13.371679 ], [ 106.791642, 13.371679 ], [ 106.796463, 13.371657 ] ], [ [ 106.832575, 13.401943 ], [ 106.832574, 13.401851 ] ], [ [ 106.837684, 13.401906 ], [ 106.832575, 13.401943 ] ], [ [ 106.837709, 13.395312 ], [ 106.837709, 13.395255 ] ], [ [ 106.832574, 13.401851 ], [ 106.832548, 13.401425 ], [ 106.832608, 13.401251 ], [ 106.83277, 13.401045 ], [ 106.833073, 13.401012 ], [ 106.833391, 13.40101 ], [ 106.83349, 13.400751 ], [ 106.833495, 13.40074 ], [ 106.833645, 13.400418 ], [ 106.833725, 13.400282 ], [ 106.833893, 13.40022 ], [ 106.834076, 13.400212 ], [ 106.834208, 13.400288 ], [ 106.834326, 13.400396 ], [ 106.834411, 13.400521 ], [ 106.834496, 13.400617 ], [ 106.834822, 13.400665 ], [ 106.834992, 13.400426 ], [ 106.835029, 13.400209 ], [ 106.83486, 13.400066 ], [ 106.834815, 13.399788 ], [ 106.834865, 13.399615 ], [ 106.834901, 13.399489 ], [ 106.835242, 13.399017 ], [ 106.835378, 13.398872 ], [ 106.835471, 13.398666 ], [ 106.83562, 13.398531 ], [ 106.835721, 13.398439 ], [ 106.835981, 13.398036 ], [ 106.836045, 13.397863 ], [ 106.835781, 13.397371 ], [ 106.835775, 13.397361 ], [ 106.836757, 13.395507 ], [ 106.836885, 13.395506 ], [ 106.837216, 13.395479 ], [ 106.837394, 13.395453 ], [ 106.837572, 13.395352 ], [ 106.837709, 13.395322 ], [ 106.837709, 13.395312 ] ], [ [ 106.842165, 13.395275 ], [ 106.842148, 13.395309 ], [ 106.842067, 13.395574 ], [ 106.84193, 13.396064 ], [ 106.841777, 13.396279 ], [ 106.841649, 13.396381 ], [ 106.84143, 13.396445 ], [ 106.841134, 13.39646 ], [ 106.84085, 13.396487 ], [ 106.840592, 13.396514 ], [ 106.840373, 13.396553 ], [ 106.840271, 13.396668 ], [ 106.840194, 13.396769 ], [ 106.840002, 13.39701 ], [ 106.839926, 13.397187 ], [ 106.839979, 13.397363 ], [ 106.840083, 13.397476 ], [ 106.840291, 13.397613 ], [ 106.840317, 13.397727 ], [ 106.840292, 13.397853 ], [ 106.84019, 13.39798 ], [ 106.839946, 13.398145 ], [ 106.839779, 13.39826 ], [ 106.839574, 13.398362 ], [ 106.839239, 13.398516 ], [ 106.838995, 13.398619 ], [ 106.838777, 13.398784 ], [ 106.838687, 13.398848 ], [ 106.838636, 13.398961 ], [ 106.838643, 13.399085 ], [ 106.838646, 13.399466 ], [ 106.838551, 13.399816 ], [ 106.838488, 13.400071 ], [ 106.838328, 13.400358 ], [ 106.838167, 13.400581 ], [ 106.837973, 13.400805 ], [ 106.837715, 13.400965 ], [ 106.837717, 13.401219 ], [ 106.837684, 13.401906 ] ], [ [ 106.842212, 13.395274 ], [ 106.842165, 13.395275 ] ], [ [ 106.842422, 13.372391 ], [ 106.842401, 13.37129 ] ], [ [ 106.842881, 13.374682 ], [ 106.84288, 13.374682 ] ], [ [ 106.842884, 13.374655 ], [ 106.84288, 13.374682 ] ], [ [ 106.842897, 13.374655 ], [ 106.842884, 13.374655 ] ], [ [ 106.842884, 13.374655 ], [ 106.842901, 13.374528 ], [ 106.842806, 13.374254 ], [ 106.842639, 13.373889 ], [ 106.842498, 13.373776 ], [ 106.842447, 13.373761 ], [ 106.842418, 13.372215 ] ], [ [ 106.837709, 13.395312 ], [ 106.837757, 13.395312 ], [ 106.837928, 13.395275 ], [ 106.838183, 13.395198 ], [ 106.838336, 13.395172 ], [ 106.838462, 13.395096 ], [ 106.838895, 13.395019 ], [ 106.83915, 13.394917 ], [ 106.839199, 13.394717 ], [ 106.840083, 13.394043 ], [ 106.840426, 13.393781 ], [ 106.840777, 13.393581 ], [ 106.840878, 13.393506 ], [ 106.841054, 13.393406 ], [ 106.841254, 13.393257 ], [ 106.841405, 13.393133 ], [ 106.84153, 13.393009 ], [ 106.841655, 13.392864 ], [ 106.84168, 13.392835 ], [ 106.842005, 13.392438 ], [ 106.842129, 13.392166 ], [ 106.842152, 13.391845 ], [ 106.842132, 13.391714 ], [ 106.842099, 13.3915 ], [ 106.842097, 13.391229 ], [ 106.842147, 13.391056 ], [ 106.842398, 13.390906 ], [ 106.842674, 13.390757 ], [ 106.842825, 13.390706 ], [ 106.842976, 13.390681 ], [ 106.84302, 13.390645 ], [ 106.843127, 13.390556 ], [ 106.843302, 13.390333 ], [ 106.843401, 13.390086 ], [ 106.843475, 13.389888 ], [ 106.843524, 13.389666 ], [ 106.843498, 13.389493 ], [ 106.843492, 13.389449 ], [ 106.843471, 13.389296 ], [ 106.843318, 13.38905 ], [ 106.843216, 13.388928 ], [ 106.843114, 13.388781 ], [ 106.843113, 13.388633 ], [ 106.843162, 13.388435 ], [ 106.843173, 13.388274 ], [ 106.843185, 13.38809 ], [ 106.843183, 13.387868 ], [ 106.843207, 13.387621 ], [ 106.843178, 13.387152 ], [ 106.843174, 13.387101 ], [ 106.84314, 13.386674 ], [ 106.843112, 13.386259 ], [ 106.843037, 13.386042 ], [ 106.842985, 13.385894 ], [ 106.842834, 13.385676 ], [ 106.842732, 13.385432 ], [ 106.842755, 13.385115 ], [ 106.842704, 13.38489 ], [ 106.842678, 13.384774 ], [ 106.842676, 13.38453 ], [ 106.842699, 13.384286 ], [ 106.842697, 13.383993 ], [ 106.842651, 13.38378 ], [ 106.842645, 13.38375 ], [ 106.842493, 13.383409 ], [ 106.842417, 13.383239 ], [ 106.84229, 13.382947 ], [ 106.842114, 13.382729 ], [ 106.842018, 13.382635 ], [ 106.841678, 13.382303 ], [ 106.841559, 13.382188 ], [ 106.841596, 13.381804 ], [ 106.841633, 13.381574 ], [ 106.841632, 13.38146 ], [ 106.84163, 13.381151 ], [ 106.84155, 13.38096 ], [ 106.841392, 13.38073 ], [ 106.841312, 13.380577 ], [ 106.841229, 13.380417 ], [ 106.841193, 13.380348 ], [ 106.841073, 13.38008 ], [ 106.840992, 13.379735 ], [ 106.840988, 13.379294 ], [ 106.840988, 13.379236 ], [ 106.840948, 13.379044 ], [ 106.840868, 13.378852 ], [ 106.840711, 13.378892 ], [ 106.840515, 13.37897 ], [ 106.840122, 13.378973 ], [ 106.839769, 13.378937 ], [ 106.839376, 13.378939 ], [ 106.839219, 13.37894 ], [ 106.838983, 13.378827 ], [ 106.838904, 13.378751 ], [ 106.838784, 13.378521 ], [ 106.838665, 13.37833 ], [ 106.838598, 13.378202 ], [ 106.838585, 13.378177 ], [ 106.838426, 13.377909 ], [ 106.838346, 13.377718 ], [ 106.838267, 13.377603 ], [ 106.838068, 13.377259 ], [ 106.837988, 13.377067 ], [ 106.837968, 13.377035 ], [ 106.837869, 13.376876 ], [ 106.837868, 13.376761 ], [ 106.837788, 13.376454 ], [ 106.837747, 13.376263 ], [ 106.837709, 13.376235 ], [ 106.837589, 13.376148 ], [ 106.837352, 13.375958 ], [ 106.837286, 13.375894 ], [ 106.837234, 13.375844 ], [ 106.836682, 13.375617 ], [ 106.836485, 13.375542 ], [ 106.835973, 13.375315 ], [ 106.835854, 13.375085 ], [ 106.835813, 13.374893 ], [ 106.835775, 13.374732 ], [ 106.835732, 13.374548 ], [ 106.835613, 13.37428 ], [ 106.835452, 13.373782 ], [ 106.835226, 13.373566 ], [ 106.83512, 13.373464 ], [ 106.835058, 13.373227 ], [ 106.835011, 13.373034 ], [ 106.834888, 13.372872 ], [ 106.834811, 13.372739 ], [ 106.834689, 13.372577 ], [ 106.834643, 13.372503 ], [ 106.834553, 13.372384 ], [ 106.83452, 13.37234 ], [ 106.834368, 13.372223 ], [ 106.834246, 13.37212 ], [ 106.834169, 13.371957 ], [ 106.834152, 13.371779 ], [ 106.83415, 13.371497 ] ], [ [ 106.844586, 13.38377 ], [ 106.84456, 13.38377 ] ], [ [ 106.84288, 13.374682 ], [ 106.84288, 13.374683 ], [ 106.842857, 13.374848 ], [ 106.842812, 13.375123 ], [ 106.84279, 13.375328 ], [ 106.84279, 13.375329 ], [ 106.842721, 13.375489 ], [ 106.842515, 13.375869 ], [ 106.842487, 13.375921 ], [ 106.842531, 13.378325 ], [ 106.84272, 13.378598 ], [ 106.842908, 13.378734 ], [ 106.843236, 13.378868 ], [ 106.843471, 13.379027 ], [ 106.844643, 13.381343 ], [ 106.844504, 13.38162 ], [ 106.844469, 13.381689 ], [ 106.844471, 13.381964 ], [ 106.844545, 13.382343 ], [ 106.844596, 13.383486 ], [ 106.84456, 13.38377 ] ], [ [ 106.842165, 13.395275 ], [ 106.842251, 13.395104 ], [ 106.842417, 13.394919 ], [ 106.842582, 13.394673 ], [ 106.842768, 13.394468 ], [ 106.842829, 13.394305 ], [ 106.842953, 13.394059 ], [ 106.843013, 13.393671 ], [ 106.843011, 13.393467 ], [ 106.843114, 13.393303 ], [ 106.8433, 13.393078 ], [ 106.843508, 13.392954 ], [ 106.843799, 13.392768 ], [ 106.843818, 13.392503 ], [ 106.843817, 13.392319 ], [ 106.843857, 13.392074 ], [ 106.844001, 13.391849 ], [ 106.844125, 13.391705 ], [ 106.84425, 13.391535 ], [ 106.844349, 13.391444 ], [ 106.844499, 13.391337 ], [ 106.844674, 13.391213 ], [ 106.844841, 13.391105 ], [ 106.844982, 13.390965 ], [ 106.845174, 13.390783 ], [ 106.845315, 13.390651 ], [ 106.845431, 13.390495 ], [ 106.845606, 13.390305 ], [ 106.845655, 13.390141 ], [ 106.845687, 13.389977 ], [ 106.845711, 13.389797 ], [ 106.845709, 13.389584 ], [ 106.845666, 13.389404 ], [ 106.845581, 13.389241 ], [ 106.845505, 13.389111 ], [ 106.845471, 13.388964 ], [ 106.84547, 13.388816 ], [ 106.845487, 13.388617 ], [ 106.845486, 13.388445 ], [ 106.84543, 13.38826 ], [ 106.845293, 13.388009 ], [ 106.845116, 13.387799 ], [ 106.844843, 13.387602 ], [ 106.844652, 13.387404 ], [ 106.84461, 13.387153 ], [ 106.844554, 13.386862 ], [ 106.84458, 13.386703 ], [ 106.844714, 13.386517 ], [ 106.84482, 13.386278 ], [ 106.844805, 13.386053 ], [ 106.844808, 13.385605 ], [ 106.84485, 13.385327 ], [ 106.844802, 13.384813 ], [ 106.844647, 13.384536 ], [ 106.844558, 13.384279 ], [ 106.844534, 13.383979 ], [ 106.844555, 13.383811 ], [ 106.84456, 13.38377 ] ], [ [ 106.796463, 13.371657 ], [ 106.796466, 13.371657 ], [ 106.796472, 13.371657 ], [ 106.810252, 13.371421 ], [ 106.810287, 13.371424 ], [ 106.810961, 13.37152 ], [ 106.81104, 13.371526 ], [ 106.811062, 13.371525 ], [ 106.812683, 13.371461 ], [ 106.812686, 13.371461 ], [ 106.812687, 13.371461 ], [ 106.812688, 13.371461 ], [ 106.813135, 13.371487 ], [ 106.813167, 13.371488 ], [ 106.813183, 13.371487 ], [ 106.814838, 13.371439 ], [ 106.814845, 13.371438 ], [ 106.815163, 13.371432 ], [ 106.815169, 13.371432 ], [ 106.815486, 13.371423 ], [ 106.815487, 13.371423 ], [ 106.815804, 13.371413 ], [ 106.81581, 13.371413 ], [ 106.816127, 13.3714 ], [ 106.816128, 13.3714 ], [ 106.816442, 13.371386 ], [ 106.816449, 13.371386 ], [ 106.81696, 13.371368 ], [ 106.816964, 13.371368 ], [ 106.817477, 13.371353 ], [ 106.817479, 13.371353 ], [ 106.817989, 13.37134 ], [ 106.817993, 13.371339 ], [ 106.818506, 13.371329 ], [ 106.818508, 13.371328 ], [ 106.819023, 13.371318 ], [ 106.819034, 13.371317 ], [ 106.819536, 13.371313 ], [ 106.819538, 13.371313 ], [ 106.820052, 13.37131 ], [ 106.820053, 13.37131 ], [ 106.820569, 13.371311 ], [ 106.82057, 13.371311 ], [ 106.820571, 13.371311 ], [ 106.821084, 13.371315 ], [ 106.821088, 13.371315 ], [ 106.821089, 13.371315 ], [ 106.821593, 13.371322 ], [ 106.821599, 13.371323 ], [ 106.822113, 13.371334 ], [ 106.822115, 13.371334 ], [ 106.822628, 13.371346 ], [ 106.822631, 13.371346 ], [ 106.823143, 13.37136 ], [ 106.823146, 13.37136 ], [ 106.823657, 13.371376 ], [ 106.82366, 13.371376 ], [ 106.824172, 13.371394 ], [ 106.824175, 13.371394 ], [ 106.824943, 13.371423 ], [ 106.825715, 13.371452 ], [ 106.825717, 13.371452 ], [ 106.826487, 13.371479 ], [ 106.827258, 13.371505 ], [ 106.828029, 13.37153 ], [ 106.828032, 13.37153 ], [ 106.829254, 13.371563 ], [ 106.829264, 13.371564 ], [ 106.830482, 13.371576 ], [ 106.830487, 13.371576 ], [ 106.830492, 13.371576 ], [ 106.831711, 13.371565 ], [ 106.831721, 13.371564 ], [ 106.832938, 13.371531 ], [ 106.832949, 13.371531 ], [ 106.834169, 13.371474 ], [ 106.83418, 13.371474 ], [ 106.837, 13.371517 ], [ 106.837008, 13.371517 ], [ 106.837029, 13.371516 ], [ 106.838072, 13.371477 ], [ 106.838077, 13.371477 ], [ 106.839169, 13.371425 ], [ 106.839178, 13.371425 ], [ 106.839182, 13.371424 ], [ 106.840672, 13.371397 ], [ 106.840677, 13.371397 ], [ 106.840678, 13.371397 ], [ 106.8415, 13.371402 ], [ 106.841503, 13.371402 ], [ 106.84178, 13.371329 ], [ 106.841783, 13.371328 ], [ 106.841817, 13.371308 ], [ 106.841948, 13.371272 ], [ 106.847764, 13.371188 ], [ 106.847779, 13.371189 ], [ 106.84824, 13.37122 ], [ 106.848318, 13.371236 ], [ 106.848637, 13.371358 ], [ 106.848712, 13.37138 ], [ 106.849132, 13.371476 ], [ 106.849176, 13.371489 ], [ 106.849521, 13.371631 ], [ 106.849618, 13.37166 ], [ 106.850031, 13.371747 ], [ 106.850145, 13.371759 ], [ 106.850149, 13.371759 ], [ 106.850668, 13.371755 ], [ 106.85067, 13.371755 ], [ 106.850672, 13.371755 ], [ 106.852523, 13.371771 ], [ 106.852591, 13.37178 ], [ 106.852678, 13.371804 ], [ 106.852775, 13.371821 ], [ 106.852931, 13.371835 ], [ 106.852981, 13.371838 ], [ 106.852986, 13.371838 ], [ 106.853334, 13.371835 ], [ 106.853617, 13.371833 ], [ 106.853636, 13.371832 ], [ 106.853953, 13.371819 ], [ 106.853955, 13.371819 ], [ 106.854237, 13.371829 ], [ 106.85476, 13.371847 ], [ 106.854813, 13.371854 ], [ 106.854929, 13.371881 ], [ 106.855032, 13.371894 ], [ 106.855403, 13.371908 ], [ 106.855424, 13.371909 ], [ 106.855531, 13.371898 ], [ 106.855852, 13.371835 ], [ 106.856022, 13.371773 ], [ 106.856084, 13.371733 ], [ 106.856197, 13.371646 ], [ 106.856296, 13.37162 ], [ 106.856584, 13.371634 ], [ 106.856661, 13.371649 ], [ 106.856972, 13.37176 ], [ 106.857021, 13.371775 ], [ 106.857142, 13.371806 ], [ 106.85728, 13.371823 ], [ 106.857286, 13.371823 ], [ 106.857457, 13.371821 ], [ 106.857605, 13.371799 ], [ 106.857757, 13.371755 ], [ 106.857793, 13.371748 ], [ 106.858086, 13.371705 ], [ 106.858095, 13.371704 ], [ 106.85845, 13.371659 ], [ 106.858467, 13.371657 ], [ 106.858891, 13.371612 ], [ 106.858918, 13.371611 ], [ 106.85914, 13.37161 ], [ 106.859167, 13.371611 ], [ 106.859347, 13.37163 ], [ 106.859457, 13.371641 ], [ 106.859513, 13.371644 ], [ 106.859643, 13.371629 ], [ 106.859904, 13.371566 ], [ 106.859953, 13.371558 ], [ 106.860181, 13.371546 ], [ 106.860187, 13.371546 ], [ 106.862109, 13.371587 ], [ 106.862205, 13.371613 ], [ 106.862225, 13.371632 ], [ 106.86226, 13.371662 ], [ 106.862371, 13.371752 ], [ 106.86246, 13.371826 ], [ 106.862538, 13.371878 ], [ 106.862627, 13.371919 ], [ 106.862652, 13.371928 ], [ 106.862782, 13.371957 ], [ 106.863002, 13.37198 ], [ 106.863015, 13.371981 ], [ 106.863111, 13.371989 ], [ 106.863221, 13.372023 ], [ 106.863273, 13.372053 ], [ 106.863376, 13.372134 ], [ 106.863453, 13.372188 ], [ 106.863608, 13.372247 ], [ 106.863658, 13.372259 ], [ 106.863878, 13.372309 ], [ 106.863896, 13.372314 ], [ 106.864077, 13.372368 ], [ 106.864117, 13.372383 ], [ 106.864179, 13.372413 ], [ 106.864268, 13.3725 ], [ 106.864327, 13.372556 ], [ 106.86447, 13.372694 ], [ 106.864747, 13.372767 ], [ 106.864839, 13.372759 ], [ 106.865022, 13.372728 ], [ 106.865065, 13.372724 ], [ 106.865205, 13.372723 ], [ 106.865272, 13.372732 ], [ 106.865281, 13.372734 ], [ 106.86531, 13.372746 ], [ 106.865345, 13.372773 ], [ 106.865364, 13.372793 ], [ 106.865472, 13.372875 ], [ 106.865562, 13.372962 ], [ 106.865584, 13.373012 ], [ 106.86561, 13.373061 ], [ 106.865655, 13.373126 ], [ 106.865661, 13.373134 ], [ 106.865679, 13.37316 ], [ 106.865752, 13.373307 ], [ 106.865769, 13.373338 ], [ 106.865972, 13.373535 ], [ 106.866249, 13.373608 ], [ 106.866325, 13.373603 ], [ 106.86638, 13.373595 ], [ 106.866588, 13.373597 ], [ 106.866593, 13.373597 ], [ 106.866596, 13.373597 ], [ 106.866758, 13.373596 ], [ 106.866793, 13.373594 ], [ 106.866949, 13.373584 ], [ 106.866966, 13.373583 ], [ 106.867169, 13.373583 ], [ 106.867231, 13.373579 ], [ 106.86732, 13.373569 ], [ 106.867479, 13.373528 ], [ 106.867509, 13.373515 ], [ 106.867565, 13.373487 ], [ 106.867668, 13.373413 ], [ 106.867751, 13.373335 ], [ 106.86781, 13.373271 ], [ 106.867847, 13.373223 ], [ 106.867888, 13.373164 ], [ 106.867919, 13.373105 ], [ 106.867942, 13.373049 ], [ 106.867944, 13.373045 ], [ 106.867972, 13.373008 ], [ 106.868015, 13.372962 ], [ 106.868092, 13.372862 ], [ 106.868108, 13.372834 ], [ 106.868187, 13.372675 ], [ 106.868245, 13.372609 ], [ 106.868338, 13.372533 ], [ 106.868413, 13.372461 ], [ 106.868476, 13.372387 ], [ 106.868512, 13.372352 ], [ 106.868663, 13.372228 ], [ 106.868739, 13.372202 ], [ 106.868822, 13.37219 ], [ 106.868999, 13.372133 ], [ 106.869062, 13.3721 ], [ 106.869169, 13.372042 ], [ 106.869182, 13.372035 ], [ 106.869385, 13.371838 ], [ 106.869452, 13.371655 ], [ 106.869456, 13.371634 ], [ 106.869472, 13.37159 ], [ 106.869509, 13.371548 ], [ 106.869523, 13.371537 ], [ 106.869633, 13.371508 ], [ 106.869748, 13.371508 ], [ 106.869779, 13.371507 ], [ 106.870065, 13.371489 ], [ 106.870111, 13.371501 ], [ 106.870127, 13.371555 ], [ 106.870652, 13.401621 ], [ 106.870637, 13.401674 ], [ 106.87058, 13.40169 ], [ 106.861694, 13.401733 ], [ 106.861693, 13.401733 ], [ 106.837684, 13.401906 ] ], [ [ 106.796463, 13.371657 ], [ 106.796463, 13.371638 ] ], [ [ 106.935957, 13.454615 ], [ 106.936033, 13.454416 ], [ 106.936026, 13.453209 ], [ 106.936241, 13.453209 ], [ 106.936255, 13.453153 ], [ 106.936332, 13.453015 ], [ 106.936451, 13.452932 ], [ 106.936719, 13.452803 ], [ 106.936824, 13.452731 ], [ 106.936976, 13.452633 ], [ 106.937227, 13.452457 ], [ 106.937476, 13.452198 ], [ 106.937626, 13.452034 ], [ 106.937749, 13.451895 ], [ 106.937964, 13.451659 ], [ 106.938131, 13.451447 ], [ 106.938193, 13.451355 ], [ 106.938219, 13.451199 ], [ 106.938228, 13.451005 ], [ 106.938232, 13.450866 ], [ 106.93825, 13.450766 ], [ 106.938291, 13.450649 ], [ 106.9384, 13.450411 ], [ 106.938448, 13.450266 ], [ 106.938527, 13.450053 ], [ 106.938669, 13.449837 ], [ 106.938889, 13.449635 ], [ 106.939141, 13.449417 ], [ 106.939329, 13.449264 ], [ 106.939414, 13.449163 ], [ 106.939469, 13.449069 ], [ 106.939515, 13.44896 ], [ 106.939574, 13.448871 ], [ 106.939599, 13.44876 ], [ 106.939602, 13.4486 ], [ 106.939573, 13.448401 ], [ 106.939572, 13.448299 ], [ 106.939584, 13.448124 ], [ 106.939583, 13.44793 ], [ 106.939567, 13.447797 ], [ 106.939491, 13.447485 ], [ 106.939449, 13.447196 ], [ 106.939367, 13.446947 ], [ 106.939259, 13.446805 ], [ 106.939207, 13.446707 ], [ 106.93904, 13.446501 ], [ 106.938965, 13.446304 ], [ 106.938953, 13.44619 ], [ 106.939037, 13.445956 ], [ 106.939247, 13.445604 ], [ 106.93946, 13.445407 ], [ 106.940004, 13.444953 ], [ 106.940188, 13.444823 ], [ 106.940295, 13.444766 ], [ 106.940392, 13.444664 ], [ 106.940485, 13.444477 ], [ 106.940551, 13.444413 ], [ 106.940682, 13.444286 ], [ 106.940958, 13.443994 ], [ 106.941015, 13.443932 ], [ 106.941176, 13.443757 ], [ 106.941266, 13.44366 ], [ 106.941417, 13.443349 ], [ 106.941982, 13.442494 ], [ 106.942311, 13.442045 ], [ 106.942599, 13.441646 ], [ 106.942919, 13.441131 ], [ 106.943047, 13.440911 ], [ 106.943136, 13.440559 ], [ 106.943193, 13.440448 ], [ 106.943351, 13.440285 ], [ 106.94365, 13.440038 ], [ 106.944024, 13.439921 ], [ 106.944157, 13.439856 ], [ 106.944229, 13.439785 ], [ 106.944269, 13.439661 ], [ 106.94429, 13.439529 ], [ 106.944457, 13.438723 ], [ 106.944439, 13.438614 ], [ 106.944219, 13.438127 ], [ 106.943758, 13.437513 ], [ 106.943676, 13.43734 ], [ 106.943682, 13.437213 ] ], [ [ 106.951919, 13.437225 ], [ 106.951895, 13.437274 ], [ 106.951386, 13.437644 ], [ 106.951124, 13.438035 ], [ 106.950971, 13.438177 ], [ 106.950678, 13.438371 ], [ 106.950228, 13.438486 ], [ 106.94992, 13.438547 ], [ 106.949619, 13.43868 ], [ 106.948461, 13.439187 ], [ 106.948346, 13.43973 ], [ 106.94778, 13.440123 ], [ 106.947352, 13.440114 ], [ 106.9471, 13.440108 ], [ 106.946836, 13.44009 ], [ 106.946553, 13.440856 ], [ 106.946336, 13.441118 ], [ 106.945707, 13.441408 ], [ 106.945247, 13.441324 ], [ 106.944822, 13.441218 ], [ 106.944731, 13.441433 ], [ 106.944477, 13.442347 ], [ 106.944184, 13.442688 ], [ 106.943315, 13.443362 ], [ 106.943304, 13.443505 ], [ 106.943734, 13.444131 ], [ 106.943605, 13.444687 ], [ 106.943173, 13.445153 ], [ 106.94243, 13.445829 ], [ 106.942065, 13.445937 ], [ 106.942007, 13.446245 ], [ 106.942066, 13.446378 ], [ 106.94193, 13.446526 ], [ 106.941526, 13.446709 ], [ 106.941067, 13.446962 ], [ 106.940636, 13.44718 ], [ 106.94062, 13.447233 ], [ 106.940819, 13.447713 ], [ 106.940919, 13.447817 ], [ 106.941051, 13.447899 ], [ 106.941162, 13.448013 ], [ 106.941239, 13.448121 ], [ 106.941275, 13.448276 ], [ 106.941292, 13.448507 ], [ 106.941288, 13.448708 ], [ 106.941085, 13.449014 ], [ 106.940923, 13.449261 ], [ 106.940749, 13.449529 ], [ 106.940727, 13.449602 ], [ 106.940876, 13.45079 ], [ 106.940893, 13.450988 ], [ 106.940915, 13.455465 ] ], [ [ 106.996118, 13.459528 ], [ 106.996098, 13.459994 ], [ 106.996066, 13.460428 ], [ 106.99606, 13.460562 ], [ 106.996049, 13.460799 ], [ 106.996042, 13.461637 ], [ 106.996042, 13.461667 ], [ 106.996039, 13.461745 ], [ 106.99603, 13.461958 ], [ 106.996012, 13.462071 ], [ 106.995991, 13.462138 ], [ 106.995958, 13.462169 ], [ 106.995912, 13.462186 ], [ 106.995807, 13.462183 ], [ 106.995717, 13.462184 ], [ 106.995561, 13.46216 ], [ 106.995369, 13.462162 ], [ 106.995279, 13.462177 ], [ 106.994877, 13.462387 ], [ 106.994717, 13.462475 ], [ 106.994581, 13.462553 ], [ 106.994443, 13.46266 ], [ 106.994282, 13.462803 ], [ 106.994192, 13.462881 ], [ 106.994037, 13.462997 ], [ 106.994034, 13.462999 ], [ 106.994006, 13.463019 ], [ 106.994001, 13.463023 ], [ 106.993897, 13.463098 ], [ 106.99377, 13.463208 ], [ 106.993615, 13.463354 ], [ 106.993436, 13.463508 ], [ 106.993364, 13.463566 ], [ 106.993188, 13.463679 ], [ 106.993108, 13.463717 ], [ 106.992917, 13.463782 ], [ 106.992836, 13.463802 ], [ 106.992761, 13.46382 ], [ 106.992723, 13.463831 ], [ 106.992601, 13.463865 ], [ 106.992483, 13.463903 ], [ 106.99241, 13.463942 ], [ 106.992282, 13.463943 ], [ 106.992161, 13.463961 ], [ 106.992026, 13.463987 ], [ 106.991903, 13.464005 ], [ 106.991815, 13.464012 ], [ 106.991606, 13.463995 ], [ 106.991531, 13.463993 ], [ 106.991407, 13.464019 ], [ 106.991292, 13.464054 ], [ 106.991193, 13.464104 ], [ 106.990974, 13.464231 ], [ 106.990859, 13.464272 ], [ 106.990858, 13.464272 ], [ 106.990802, 13.464309 ], [ 106.990734, 13.464402 ], [ 106.990681, 13.46447 ], [ 106.990573, 13.464537 ], [ 106.990406, 13.464604 ], [ 106.990372, 13.464619 ], [ 106.990332, 13.464636 ], [ 106.9903, 13.46465 ], [ 106.990259, 13.464668 ], [ 106.990212, 13.464689 ], [ 106.990194, 13.464699 ], [ 106.990155, 13.46472 ], [ 106.990124, 13.464737 ], [ 106.989969, 13.46482 ], [ 106.989904, 13.464852 ], [ 106.989843, 13.464883 ], [ 106.989727, 13.464927 ], [ 106.989625, 13.464945 ], [ 106.989518, 13.464954 ], [ 106.989455, 13.464958 ], [ 106.989375, 13.464958 ], [ 106.989303, 13.464957 ], [ 106.989185, 13.464967 ], [ 106.989153, 13.464979 ], [ 106.989123, 13.464991 ], [ 106.989061, 13.465041 ], [ 106.989026, 13.465073 ], [ 106.989004, 13.465093 ], [ 106.988984, 13.465141 ], [ 106.988975, 13.465224 ], [ 106.988945, 13.465298 ], [ 106.988886, 13.465354 ], [ 106.988772, 13.465432 ], [ 106.98859, 13.465511 ], [ 106.988463, 13.465562 ], [ 106.988352, 13.465604 ], [ 106.988238, 13.465643 ], [ 106.988141, 13.465674 ], [ 106.988065, 13.465714 ], [ 106.987983, 13.465757 ], [ 106.987911, 13.465799 ], [ 106.987841, 13.465838 ], [ 106.987789, 13.465877 ], [ 106.987735, 13.465917 ], [ 106.987672, 13.465969 ], [ 106.987638, 13.465997 ], [ 106.987575, 13.466046 ], [ 106.987524, 13.466082 ], [ 106.98745, 13.466134 ], [ 106.987392, 13.466183 ], [ 106.987277, 13.466271 ], [ 106.987145, 13.466357 ], [ 106.987095, 13.466293 ], [ 106.987042, 13.466221 ], [ 106.987008, 13.466203 ], [ 106.986946, 13.466168 ], [ 106.986909, 13.46613 ], [ 106.98684, 13.466058 ], [ 106.986797, 13.466001 ], [ 106.986758, 13.465956 ], [ 106.986741, 13.465952 ], [ 106.986721, 13.465961 ], [ 106.986711, 13.465963 ], [ 106.986556, 13.465998 ], [ 106.985949, 13.466165 ], [ 106.985905, 13.466085 ], [ 106.985864, 13.465863 ], [ 106.985785, 13.465591 ], [ 106.985737, 13.46538 ], [ 106.985711, 13.465244 ], [ 106.985705, 13.465214 ], [ 106.985701, 13.465194 ], [ 106.985699, 13.465185 ], [ 106.9857, 13.46438 ], [ 106.985703, 13.463164 ], [ 106.985705, 13.46192 ], [ 106.985707, 13.460738 ], [ 106.985709, 13.45959 ], [ 106.985702, 13.45959 ], [ 106.985709, 13.459584 ], [ 106.985709, 13.45923 ], [ 106.982727, 13.45923 ], [ 106.982452, 13.45885 ], [ 106.982258, 13.458736 ], [ 106.98078, 13.458951 ], [ 106.980732, 13.459386 ], [ 106.980717, 13.459523 ], [ 106.980715, 13.459538 ], [ 106.980622, 13.460383 ], [ 106.98059, 13.460675 ], [ 106.98049, 13.461589 ], [ 106.98048, 13.461678 ], [ 106.980465, 13.461816 ], [ 106.980455, 13.46191 ], [ 106.980386, 13.462536 ], [ 106.980369, 13.463 ], [ 106.980368, 13.463032 ], [ 106.980327, 13.464163 ], [ 106.980294, 13.465058 ], [ 106.980293, 13.465095 ], [ 106.980291, 13.465144 ], [ 106.980258, 13.46606 ], [ 106.980257, 13.466087 ], [ 106.980225, 13.466988 ], [ 106.980332, 13.467146 ], [ 106.980514, 13.467412 ], [ 106.980505, 13.467471 ], [ 106.980488, 13.467741 ], [ 106.98049, 13.467967 ], [ 106.980497, 13.4683 ], [ 106.980425, 13.468493 ], [ 106.980419, 13.4685 ], [ 106.980308, 13.468639 ], [ 106.980056, 13.468641 ], [ 106.979844, 13.468667 ], [ 106.979728, 13.468923 ], [ 106.979595, 13.468924 ], [ 106.979397, 13.468887 ], [ 106.979242, 13.468836 ], [ 106.979046, 13.468785 ], [ 106.978941, 13.468642 ], [ 106.978886, 13.468422 ], [ 106.978859, 13.468206 ], [ 106.978818, 13.467986 ], [ 106.978718, 13.467747 ], [ 106.978483, 13.46777 ], [ 106.978349, 13.467711 ], [ 106.978212, 13.467717 ], [ 106.977948, 13.467729 ], [ 106.977736, 13.467719 ], [ 106.977684, 13.467714 ], [ 106.977641, 13.467721 ], [ 106.977583, 13.46773 ], [ 106.977506, 13.467749 ], [ 106.977264, 13.467779 ], [ 106.976604, 13.46784 ], [ 106.976467, 13.467842 ], [ 106.976345, 13.467845 ], [ 106.976191, 13.467856 ], [ 106.976045, 13.467866 ], [ 106.975821, 13.46787 ], [ 106.975657, 13.467868 ], [ 106.975347, 13.46788 ], [ 106.975245, 13.467892 ], [ 106.975176, 13.467923 ], [ 106.975138, 13.467961 ], [ 106.975115, 13.468031 ], [ 106.975114, 13.468115 ], [ 106.975121, 13.46819 ], [ 106.975138, 13.468265 ], [ 106.975166, 13.468323 ], [ 106.975195, 13.46837 ], [ 106.975246, 13.468419 ], [ 106.975251, 13.468424 ], [ 106.975324, 13.468469 ], [ 106.975383, 13.468499 ], [ 106.975418, 13.468542 ], [ 106.975433, 13.468575 ], [ 106.975452, 13.468616 ], [ 106.975461, 13.468679 ], [ 106.975446, 13.468876 ], [ 106.975428, 13.469118 ], [ 106.97539, 13.469533 ], [ 106.975386, 13.469577 ], [ 106.975379, 13.469655 ], [ 106.975349, 13.470015 ], [ 106.97531, 13.470589 ], [ 106.975301, 13.47073 ], [ 106.975296, 13.470777 ], [ 106.975224, 13.471522 ], [ 106.975204, 13.471689 ], [ 106.975181, 13.471843 ], [ 106.975148, 13.471986 ], [ 106.975131, 13.47204 ], [ 106.975102, 13.472097 ], [ 106.975044, 13.472151 ], [ 106.974962, 13.472172 ], [ 106.974885, 13.472165 ], [ 106.974725, 13.472145 ], [ 106.974575, 13.472131 ], [ 106.974306, 13.472125 ], [ 106.974042, 13.472128 ], [ 106.973821, 13.472129 ], [ 106.973645, 13.472107 ], [ 106.973539, 13.472086 ], [ 106.97343, 13.472049 ], [ 106.973286, 13.471996 ], [ 106.973158, 13.471961 ], [ 106.973088, 13.471953 ], [ 106.97298, 13.471961 ], [ 106.972803, 13.471975 ], [ 106.97273, 13.471975 ], [ 106.972664, 13.47196 ], [ 106.972598, 13.471931 ], [ 106.972521, 13.471887 ], [ 106.972425, 13.471803 ], [ 106.972362, 13.471742 ], [ 106.9723, 13.471647 ], [ 106.972272, 13.471595 ], [ 106.972251, 13.471488 ], [ 106.972233, 13.471384 ], [ 106.972168, 13.471087 ], [ 106.972095, 13.470893 ], [ 106.972069, 13.470826 ], [ 106.972036, 13.470743 ], [ 106.971982, 13.470606 ], [ 106.971972, 13.470581 ], [ 106.971917, 13.470484 ], [ 106.971854, 13.470379 ], [ 106.971761, 13.470277 ], [ 106.971668, 13.470218 ], [ 106.971607, 13.470197 ], [ 106.971474, 13.470165 ], [ 106.971336, 13.470136 ], [ 106.971211, 13.470104 ], [ 106.971106, 13.470077 ], [ 106.970985, 13.470024 ], [ 106.970883, 13.469964 ], [ 106.970784, 13.469895 ], [ 106.970663, 13.46979 ], [ 106.97057, 13.469714 ], [ 106.970338, 13.469518 ], [ 106.970189, 13.469397 ], [ 106.970081, 13.469325 ], [ 106.969941, 13.469235 ], [ 106.969818, 13.469168 ], [ 106.969682, 13.4691 ], [ 106.96958, 13.469039 ], [ 106.969473, 13.468957 ], [ 106.969355, 13.468897 ], [ 106.969202, 13.468836 ], [ 106.969031, 13.468767 ], [ 106.968848, 13.468678 ], [ 106.968727, 13.468594 ], [ 106.968589, 13.468484 ], [ 106.968545, 13.468449 ], [ 106.968541, 13.468445 ], [ 106.968403, 13.468319 ], [ 106.968337, 13.468258 ], [ 106.968248, 13.468176 ], [ 106.968082, 13.468007 ], [ 106.968048, 13.46797 ], [ 106.967973, 13.467889 ], [ 106.967897, 13.467803 ], [ 106.967798, 13.467694 ], [ 106.967712, 13.467607 ], [ 106.967575, 13.467502 ], [ 106.967405, 13.467381 ], [ 106.967255, 13.467276 ], [ 106.967224, 13.467254 ], [ 106.967097, 13.467162 ], [ 106.966948, 13.467054 ], [ 106.966828, 13.466972 ], [ 106.96674, 13.466916 ], [ 106.966667, 13.466849 ], [ 106.966569, 13.466805 ], [ 106.966488, 13.466745 ], [ 106.966421, 13.466701 ], [ 106.966198, 13.466538 ], [ 106.966009, 13.4664 ], [ 106.965779, 13.46622 ], [ 106.965771, 13.466214 ], [ 106.965442, 13.465951 ], [ 106.965269, 13.465828 ], [ 106.9651, 13.465734 ], [ 106.964889, 13.465643 ], [ 106.96465, 13.465481 ], [ 106.964361, 13.465238 ], [ 106.964293, 13.465181 ], [ 106.964263, 13.465156 ], [ 106.963971, 13.464887 ], [ 106.96394, 13.464858 ], [ 106.963902, 13.464821 ], [ 106.963643, 13.464569 ], [ 106.963394, 13.464291 ], [ 106.963265, 13.464102 ], [ 106.963216, 13.463974 ], [ 106.963141, 13.463679 ], [ 106.963053, 13.463279 ], [ 106.963009, 13.46312 ], [ 106.962987, 13.46304 ], [ 106.962982, 13.463024 ], [ 106.96294, 13.462871 ], [ 106.962787, 13.462349 ], [ 106.962694, 13.46201 ], [ 106.96269, 13.461999 ], [ 106.962597, 13.461749 ], [ 106.962534, 13.461664 ], [ 106.962516, 13.46164 ], [ 106.962419, 13.461545 ], [ 106.962315, 13.461477 ], [ 106.962169, 13.461378 ], [ 106.961993, 13.461234 ], [ 106.961838, 13.461077 ], [ 106.961565, 13.460771 ], [ 106.961523, 13.460724 ], [ 106.961385, 13.460565 ], [ 106.961351, 13.460526 ], [ 106.96108, 13.460325 ], [ 106.960808, 13.460116 ], [ 106.960553, 13.459927 ], [ 106.96035, 13.459771 ], [ 106.960265, 13.459711 ], [ 106.960251, 13.459701 ], [ 106.960139, 13.459627 ], [ 106.960136, 13.459625 ], [ 106.960095, 13.459598 ], [ 106.960022, 13.459561 ], [ 106.959916, 13.459529 ], [ 106.959813, 13.459473 ], [ 106.959621, 13.459384 ], [ 106.959476, 13.459317 ], [ 106.959321, 13.459243 ], [ 106.959134, 13.459155 ], [ 106.959097, 13.459137 ], [ 106.958946, 13.459076 ], [ 106.958679, 13.458974 ], [ 106.958649, 13.458963 ], [ 106.958292, 13.458879 ], [ 106.957797, 13.458831 ], [ 106.957458, 13.45883 ], [ 106.957038, 13.458907 ], [ 106.956613, 13.459019 ], [ 106.956239, 13.45916 ], [ 106.955865, 13.459242 ], [ 106.955497, 13.459298 ], [ 106.955165, 13.459281 ], [ 106.954801, 13.45925 ], [ 106.954534, 13.459211 ], [ 106.954415, 13.459193 ], [ 106.954027, 13.459093 ], [ 106.953989, 13.459082 ], [ 106.953723, 13.459007 ], [ 106.953413, 13.458951 ], [ 106.952993, 13.458899 ], [ 106.952611, 13.458869 ], [ 106.952325, 13.458881 ], [ 106.952067, 13.458937 ], [ 106.95195, 13.458959 ], [ 106.951676, 13.458993 ], [ 106.951501, 13.45899 ], [ 106.951177, 13.458944 ], [ 106.95094, 13.458828 ], [ 106.950806, 13.458707 ], [ 106.95061, 13.458503 ], [ 106.950464, 13.45838 ], [ 106.950317, 13.458302 ], [ 106.950078, 13.458129 ], [ 106.949893, 13.457943 ], [ 106.949706, 13.457824 ], [ 106.949631, 13.457794 ], [ 106.949415, 13.457709 ], [ 106.949083, 13.457601 ], [ 106.949028, 13.457581 ], [ 106.948851, 13.457518 ], [ 106.948759, 13.457489 ], [ 106.948627, 13.457445 ], [ 106.948468, 13.457413 ], [ 106.948335, 13.457399 ], [ 106.948125, 13.457396 ], [ 106.948014, 13.457385 ], [ 106.947952, 13.457374 ], [ 106.947875, 13.457349 ], [ 106.947737, 13.457308 ], [ 106.947626, 13.457271 ], [ 106.947599, 13.457262 ], [ 106.947537, 13.457244 ], [ 106.947469, 13.457224 ], [ 106.947285, 13.457156 ], [ 106.947185, 13.457135 ], [ 106.947091, 13.457127 ], [ 106.946956, 13.457131 ], [ 106.946778, 13.457122 ], [ 106.946453, 13.457073 ], [ 106.946207, 13.457011 ], [ 106.946061, 13.45698 ], [ 106.946011, 13.45697 ], [ 106.945882, 13.456915 ], [ 106.94575, 13.456813 ], [ 106.945613, 13.456692 ], [ 106.945353, 13.456583 ], [ 106.945232, 13.456485 ], [ 106.945214, 13.456471 ], [ 106.94516, 13.456342 ], [ 106.945148, 13.456222 ], [ 106.945131, 13.455977 ], [ 106.945145, 13.455483 ], [ 106.944212, 13.455495 ], [ 106.943914, 13.455506 ], [ 106.943586, 13.455493 ], [ 106.943167, 13.4555 ], [ 106.942999, 13.455491 ], [ 106.942762, 13.455458 ], [ 106.942752, 13.455457 ], [ 106.942696, 13.455459 ], [ 106.942541, 13.455465 ], [ 106.942341, 13.455503 ], [ 106.941934, 13.455518 ], [ 106.94173, 13.455506 ], [ 106.94151, 13.455478 ], [ 106.941009, 13.45547 ], [ 106.940533, 13.455446 ], [ 106.940119, 13.455428 ], [ 106.939834, 13.455419 ], [ 106.939552, 13.455407 ], [ 106.939389, 13.455399 ], [ 106.939217, 13.455401 ], [ 106.939046, 13.455402 ], [ 106.935957, 13.454615 ] ], [ [ 106.996118, 13.459528 ], [ 106.996117, 13.459527 ], [ 106.996092, 13.459472 ], [ 106.996118, 13.459528 ] ], [ [ 106.996118, 13.459528 ], [ 106.996121, 13.459471 ], [ 106.996129, 13.459288 ], [ 106.996129, 13.459281 ], [ 106.99615, 13.458632 ], [ 106.996151, 13.458219 ], [ 106.996152, 13.45787 ], [ 106.996149, 13.457341 ], [ 106.996126, 13.456973 ], [ 106.996103, 13.456594 ], [ 106.996081, 13.45595 ], [ 106.996078, 13.455898 ], [ 106.996063, 13.455604 ], [ 106.996052, 13.455293 ], [ 106.996056, 13.454921 ], [ 106.996057, 13.45485 ], [ 106.996058, 13.454843 ], [ 106.996057, 13.454843 ], [ 106.996075, 13.45366 ], [ 106.996068, 13.453296 ], [ 106.996052, 13.452539 ], [ 106.996038, 13.451902 ], [ 106.99603, 13.451484 ], [ 106.996026, 13.451252 ], [ 106.996026, 13.45073 ], [ 106.99604, 13.450474 ], [ 106.996048, 13.450328 ], [ 106.996061, 13.449829 ], [ 106.996053, 13.449234 ], [ 106.996049, 13.448924 ], [ 106.99606, 13.448554 ], [ 106.996078, 13.448447 ], [ 106.996076, 13.448032 ], [ 106.996075, 13.447809 ], [ 106.996015, 13.447361 ], [ 106.995999, 13.447021 ], [ 106.996006, 13.446765 ], [ 106.996009, 13.446634 ], [ 106.996047, 13.446228 ], [ 106.996083, 13.445691 ], [ 106.996076, 13.445521 ], [ 106.99606, 13.445352 ], [ 106.996037, 13.445134 ], [ 106.996025, 13.444928 ], [ 106.996004, 13.444646 ], [ 106.995993, 13.444564 ], [ 106.99597, 13.444385 ], [ 106.99594, 13.444188 ], [ 106.995923, 13.444049 ], [ 106.995913, 13.443885 ], [ 106.995921, 13.443718 ], [ 106.995925, 13.443542 ], [ 106.995927, 13.443486 ], [ 106.995931, 13.443348 ], [ 106.995947, 13.443041 ], [ 106.995947, 13.442871 ], [ 106.995966, 13.442408 ], [ 106.995968, 13.442352 ], [ 106.996005, 13.441869 ], [ 106.996028, 13.441633 ], [ 106.996022, 13.441363 ], [ 106.996, 13.441134 ], [ 106.995989, 13.440961 ], [ 106.995994, 13.440731 ], [ 106.995994, 13.440642 ], [ 106.995963, 13.440464 ], [ 106.995917, 13.440192 ], [ 106.995916, 13.440189 ], [ 106.995888, 13.439971 ], [ 106.995863, 13.439737 ], [ 106.995853, 13.4395 ], [ 106.99585, 13.439227 ], [ 106.995836, 13.439085 ], [ 106.995837, 13.438969 ], [ 106.995837, 13.438931 ], [ 106.99584, 13.438556 ], [ 106.99584, 13.438145 ], [ 106.995829, 13.437809 ], [ 106.99582, 13.437532 ], [ 106.995818, 13.437367 ], [ 106.995822, 13.437254 ], [ 106.995823, 13.436848 ], [ 107.005052, 13.418959 ], [ 107.005029, 13.418592 ], [ 107.005029, 13.418485 ], [ 107.005014, 13.418281 ], [ 107.004958, 13.417749 ], [ 107.004942, 13.417475 ], [ 107.004939, 13.417385 ], [ 107.004923, 13.416827 ], [ 107.00491, 13.416429 ], [ 107.004899, 13.416086 ], [ 107.004868, 13.415491 ], [ 107.004858, 13.415391 ], [ 107.004843, 13.415337 ], [ 107.004816, 13.415298 ], [ 107.004796, 13.415275 ], [ 107.004795, 13.41527 ], [ 107.004791, 13.415257 ], [ 107.004789, 13.415213 ], [ 107.004799, 13.415136 ], [ 107.004819, 13.415109 ], [ 107.004843, 13.415078 ], [ 107.004859, 13.415051 ], [ 107.004865, 13.414999 ], [ 107.00488, 13.414501 ], [ 107.004882, 13.414422 ], [ 107.004891, 13.414209 ], [ 107.004925, 13.413437 ], [ 107.004936, 13.413169 ], [ 107.004929, 13.413103 ], [ 107.004926, 13.413061 ], [ 107.004911, 13.41287 ], [ 107.004855, 13.412416 ], [ 107.004848, 13.412143 ], [ 107.004845, 13.412021 ], [ 107.004843, 13.411883 ], [ 107.004841, 13.411734 ], [ 107.004861, 13.411384 ], [ 107.004895, 13.411131 ], [ 107.004908, 13.41099 ], [ 107.004913, 13.410841 ], [ 107.004935, 13.410767 ], [ 107.004936, 13.410742 ], [ 107.004937, 13.410702 ], [ 107.004931, 13.410445 ], [ 107.004926, 13.410262 ], [ 107.004957, 13.409905 ], [ 107.004976, 13.409746 ], [ 107.004982, 13.409415 ], [ 107.004983, 13.409338 ], [ 107.005048, 13.408897 ], [ 107.005062, 13.408816 ], [ 107.005083, 13.408527 ], [ 107.005088, 13.408258 ], [ 107.005091, 13.408126 ], [ 107.005094, 13.407853 ], [ 107.005075, 13.40753 ], [ 107.005059, 13.407453 ], [ 107.005005, 13.407143 ], [ 107.004999, 13.407108 ], [ 107.004936, 13.406812 ], [ 107.004908, 13.406641 ], [ 107.004884, 13.406499 ], [ 107.004847, 13.406278 ], [ 107.004839, 13.406195 ], [ 107.004844, 13.406148 ], [ 107.004853, 13.405947 ], [ 107.004881, 13.405292 ], [ 107.004854, 13.40498 ], [ 107.004855, 13.40495 ], [ 107.004862, 13.4048 ], [ 107.004871, 13.404603 ], [ 107.004873, 13.404224 ], [ 107.004937, 13.403685 ], [ 107.004955, 13.403538 ], [ 107.005047, 13.402771 ], [ 107.004997, 13.402431 ], [ 107.004992, 13.402378 ], [ 107.004974, 13.402194 ], [ 107.004786, 13.401686 ], [ 107.004784, 13.401443 ], [ 107.004771, 13.401378 ], [ 107.004762, 13.40132 ], [ 107.004778, 13.401218 ], [ 107.004788, 13.40115 ], [ 107.0048, 13.401105 ], [ 107.004814, 13.40106 ], [ 107.004819, 13.401042 ], [ 107.004833, 13.400997 ], [ 107.004821, 13.400878 ], [ 107.00478, 13.4007 ], [ 107.00477, 13.400672 ], [ 107.004725, 13.400635 ], [ 107.004617, 13.400587 ], [ 107.004483, 13.40055 ], [ 107.00436, 13.400529 ], [ 107.004248, 13.400484 ], [ 107.004049, 13.400401 ], [ 107.003927, 13.400372 ], [ 107.003769, 13.400361 ], [ 107.003438, 13.40039 ], [ 107.003211, 13.400405 ], [ 107.003004, 13.400407 ], [ 107.00276, 13.400404 ], [ 107.002705, 13.400397 ], [ 107.002611, 13.400372 ], [ 107.002474, 13.400353 ], [ 107.002311, 13.40034 ], [ 107.002052, 13.400342 ], [ 107.001824, 13.400377 ], [ 107.001606, 13.400389 ], [ 107.001563, 13.40039 ], [ 107.001452, 13.40042 ], [ 107.001309, 13.400429 ], [ 107.001187, 13.40042 ], [ 107.001048, 13.400385 ], [ 107.000889, 13.400348 ], [ 107.00076, 13.400349 ], [ 107.00069, 13.400408 ], [ 107.000657, 13.400487 ], [ 107.000644, 13.400492 ], [ 107.000478, 13.400481 ], [ 107.000112, 13.400463 ], [ 106.999964, 13.400454 ], [ 106.999827, 13.400445 ], [ 106.999464, 13.400405 ], [ 106.999239, 13.400367 ], [ 106.999237, 13.400367 ], [ 106.999028, 13.400321 ], [ 106.998862, 13.40028 ], [ 106.998754, 13.400225 ], [ 106.998634, 13.400164 ], [ 106.99852, 13.400101 ], [ 106.998302, 13.400052 ], [ 106.998033, 13.400032 ], [ 106.997785, 13.4 ], [ 106.997599, 13.399957 ], [ 106.997322, 13.399857 ], [ 106.997123, 13.399784 ], [ 106.996993, 13.399748 ], [ 106.996834, 13.399708 ], [ 106.99641, 13.39965 ], [ 106.995953, 13.399626 ], [ 106.995669, 13.399619 ], [ 106.995536, 13.399627 ], [ 106.995419, 13.399659 ], [ 106.995192, 13.399746 ], [ 106.994794, 13.399895 ], [ 106.994692, 13.399911 ], [ 106.994535, 13.399912 ], [ 106.994017, 13.39989 ], [ 106.993536, 13.399894 ], [ 106.993274, 13.399919 ], [ 106.993031, 13.399982 ], [ 106.992639, 13.400066 ], [ 106.992022, 13.400165 ], [ 106.991716, 13.400215 ], [ 106.991336, 13.400298 ], [ 106.991135, 13.400328 ], [ 106.990841, 13.400351 ], [ 106.990581, 13.400361 ], [ 106.990331, 13.400353 ], [ 106.989933, 13.400313 ], [ 106.989763, 13.400294 ], [ 106.98948, 13.400256 ], [ 106.98919, 13.400225 ], [ 106.988706, 13.400167 ], [ 106.988355, 13.40011 ], [ 106.988317, 13.400104 ], [ 106.987926, 13.400045 ], [ 106.987589, 13.400001 ], [ 106.987404, 13.399989 ], [ 106.986904, 13.399976 ], [ 106.986123, 13.399972 ], [ 106.985562, 13.399967 ], [ 106.985094, 13.399963 ], [ 106.984743, 13.399973 ], [ 106.984494, 13.399996 ], [ 106.98431, 13.400015 ], [ 106.984163, 13.40005 ], [ 106.984065, 13.40008 ], [ 106.983977, 13.400139 ], [ 106.9837, 13.400378 ], [ 106.983631, 13.400438 ], [ 106.983567, 13.400493 ], [ 106.983194, 13.400811 ], [ 106.982717, 13.401215 ], [ 106.982275, 13.40159 ], [ 106.981953, 13.401841 ], [ 106.981775, 13.401983 ], [ 106.981533, 13.402184 ], [ 106.980914, 13.402755 ], [ 106.980908, 13.40276 ], [ 106.980432, 13.403176 ], [ 106.980225, 13.403354 ], [ 106.979879, 13.403669 ], [ 106.97947, 13.404026 ], [ 106.979216, 13.404247 ], [ 106.978722, 13.404674 ], [ 106.97853, 13.404838 ], [ 106.978345, 13.404981 ], [ 106.978127, 13.405149 ], [ 106.978077, 13.405185 ], [ 106.978008, 13.405235 ], [ 106.97794, 13.405297 ], [ 106.97787, 13.405373 ], [ 106.977742, 13.40551 ], [ 106.97747, 13.405787 ], [ 106.977302, 13.405963 ], [ 106.977113, 13.40613 ], [ 106.977081, 13.406156 ], [ 106.977326, 13.406474 ], [ 106.977472, 13.406664 ], [ 106.977709, 13.407064 ], [ 106.977993, 13.407515 ], [ 106.978023, 13.407575 ], [ 106.978267, 13.408062 ], [ 106.978436, 13.408519 ], [ 106.97849, 13.408674 ], [ 106.978504, 13.408715 ], [ 106.978582, 13.409479 ], [ 106.978644, 13.410011 ], [ 106.978671, 13.410247 ], [ 106.978594, 13.411247 ], [ 106.978589, 13.411305 ], [ 106.978472, 13.412443 ], [ 106.978436, 13.412793 ], [ 106.978356, 13.413569 ], [ 106.978269, 13.414416 ], [ 106.978251, 13.414691 ], [ 106.978183, 13.415733 ], [ 106.978123, 13.416646 ], [ 106.978123, 13.416897 ], [ 106.978123, 13.4179 ], [ 106.978123, 13.419035 ], [ 106.978123, 13.419792 ], [ 106.978163, 13.420055 ], [ 106.978196, 13.420272 ], [ 106.978279, 13.421119 ], [ 106.978384, 13.422187 ], [ 106.978384, 13.422191 ], [ 106.97847, 13.423072 ], [ 106.978499, 13.423339 ], [ 106.978504, 13.423383 ], [ 106.978551, 13.423822 ], [ 106.978631, 13.424551 ], [ 106.978756, 13.42571 ], [ 106.978848, 13.426551 ], [ 106.978882, 13.426866 ], [ 106.978909, 13.427116 ], [ 106.979022, 13.427957 ], [ 106.979192, 13.42922 ], [ 106.979354, 13.430422 ], [ 106.979356, 13.430439 ], [ 106.979429, 13.430741 ], [ 106.979668, 13.431539 ], [ 106.980051, 13.432814 ], [ 106.980087, 13.432936 ], [ 106.980334, 13.433559 ], [ 106.980441, 13.433789 ], [ 106.980612, 13.434157 ], [ 106.980947, 13.434879 ], [ 106.981358, 13.435766 ], [ 106.981476, 13.43602 ], [ 106.981929, 13.436977 ], [ 106.981508, 13.436981 ], [ 106.9774, 13.437014 ], [ 106.975952, 13.437026 ], [ 106.972499, 13.437053 ], [ 106.968313, 13.437085 ], [ 106.968073, 13.437087 ], [ 106.963518, 13.437122 ], [ 106.958835, 13.437159 ], [ 106.958466, 13.437162 ], [ 106.954323, 13.437194 ], [ 106.953421, 13.437201 ], [ 106.953421, 13.437211 ], [ 106.952684, 13.437211 ], [ 106.952684, 13.437212 ], [ 106.952008, 13.437212 ], [ 106.951926, 13.437212 ], [ 106.943682, 13.437213 ] ] ] } ] } }
]
}
