{
"type": "FeatureCollection",
"name": "Ten_xn",
"crs": { "type": "name", "properties": { "name": "urn:ogc:def:crs:OGC:1.3:CRS84" } },
"features": [
{ "type": "Feature", "properties": { "Name": "DP1", "description": "<br><br><br>\n    <table border=\"1\" padding=\"0\">\n      <tr><td>NAME</td><td></td></tr>\n      <tr><td>LAYER</td><td></td></tr>\n      <tr><td>Congty</td><td></td></tr>\n      <tr><td>KLH</td><td></td></tr>\n      <tr><td>Phapnhan</td><td></td></tr>\n      <tr><td>Quantri</td><td></td></tr>\n      <tr><td>Khuvuc</td><td></td></tr>\n      <tr><td>XN</td><td></td></tr>\n      <tr><td>NT</td><td></td></tr>\n      <tr><td>Tenlo</td><td></td></tr>\n      <tr><td>O_Kenh</td><td></td></tr>\n      <tr><td>Loai</td><td></td></tr>\n      <tr><td>DTmay</td><td>0</td></tr>\n      <tr><td>DTtrong</td><td>0</td></tr>\n      <tr><td>Socay</td><td>0</td></tr>\n      <tr><td>Thang</td><td>0</td></tr>\n      <tr><td>Namtrong</td><td>0</td></tr>\n      <tr><td>Matdo</td><td>0</td></tr>\n      <tr><td>Ghichu</td><td></td></tr>\n      <tr><td>KML_FOLDER</td><td></td></tr>\n      <tr><td>tessellate</td><td>0</td></tr>\n        ", "timestamp": null, "begin": null, "end": null, "altitudeMode": "relativeToGround", "tessellate": -1, "extrude": 1, "visibility": 1, "drawOrder": null, "icon": null }, "geometry": { "type": "Point", "coordinates": [ 106.991576, 13.425844, 0.0 ] } },
{ "type": "Feature", "properties": { "Name": "DP2", "description": "<br><br><br>\n    <table border=\"1\" padding=\"0\">\n      <tr><td>NAME</td><td></td></tr>\n      <tr><td>LAYER</td><td></td></tr>\n      <tr><td>Congty</td><td></td></tr>\n      <tr><td>KLH</td><td></td></tr>\n      <tr><td>Phapnhan</td><td></td></tr>\n      <tr><td>Quantri</td><td></td></tr>\n      <tr><td>Khuvuc</td><td></td></tr>\n      <tr><td>XN</td><td></td></tr>\n      <tr><td>NT</td><td></td></tr>\n      <tr><td>Tenlo</td><td></td></tr>\n      <tr><td>O_Kenh</td><td></td></tr>\n      <tr><td>Loai</td><td></td></tr>\n      <tr><td>DTmay</td><td>0</td></tr>\n      <tr><td>DTtrong</td><td>0</td></tr>\n      <tr><td>Socay</td><td>0</td></tr>\n      <tr><td>Thang</td><td>0</td></tr>\n      <tr><td>Namtrong</td><td>0</td></tr>\n      <tr><td>Matdo</td><td>0</td></tr>\n      <tr><td>Ghichu</td><td></td></tr>\n      <tr><td>KML_FOLDER</td><td></td></tr>\n      <tr><td>tessellate</td><td>0</td></tr>\n        ", "timestamp": null, "begin": null, "end": null, "altitudeMode": "relativeToGround", "tessellate": -1, "extrude": 1, "visibility": 1, "drawOrder": null, "icon": null }, "geometry": { "type": "Point", "coordinates": [ 106.961162, 13.452002, 0.0 ] } },
{ "type": "Feature", "properties": { "Name": "DP3", "description": "<br><br><br>\n    <table border=\"1\" padding=\"0\">\n      <tr><td>NAME</td><td></td></tr>\n      <tr><td>LAYER</td><td></td></tr>\n      <tr><td>Congty</td><td></td></tr>\n      <tr><td>KLH</td><td></td></tr>\n      <tr><td>Phapnhan</td><td></td></tr>\n      <tr><td>Quantri</td><td></td></tr>\n      <tr><td>Khuvuc</td><td></td></tr>\n      <tr><td>XN</td><td></td></tr>\n      <tr><td>NT</td><td></td></tr>\n      <tr><td>Tenlo</td><td></td></tr>\n      <tr><td>O_Kenh</td><td></td></tr>\n      <tr><td>Loai</td><td></td></tr>\n      <tr><td>DTmay</td><td>0</td></tr>\n      <tr><td>DTtrong</td><td>0</td></tr>\n      <tr><td>Socay</td><td>0</td></tr>\n      <tr><td>Thang</td><td>0</td></tr>\n      <tr><td>Namtrong</td><td>0</td></tr>\n      <tr><td>Matdo</td><td>0</td></tr>\n      <tr><td>Ghichu</td><td></td></tr>\n      <tr><td>KML_FOLDER</td><td></td></tr>\n      <tr><td>tessellate</td><td>0</td></tr>\n        ", "timestamp": null, "begin": null, "end": null, "altitudeMode": "relativeToGround", "tessellate": -1, "extrude": 1, "visibility": 1, "drawOrder": null, "icon": null }, "geometry": { "type": "Point", "coordinates": [ 106.919288, 13.452937, 0.0 ] } },
{ "type": "Feature", "properties": { "Name": "LP1", "description": "<br><br><br>\n    <table border=\"1\" padding=\"0\">\n      <tr><td>NAME</td><td></td></tr>\n      <tr><td>LAYER</td><td></td></tr>\n      <tr><td>Congty</td><td></td></tr>\n      <tr><td>KLH</td><td></td></tr>\n      <tr><td>Phapnhan</td><td></td></tr>\n      <tr><td>Quantri</td><td></td></tr>\n      <tr><td>Khuvuc</td><td></td></tr>\n      <tr><td>XN</td><td></td></tr>\n      <tr><td>NT</td><td></td></tr>\n      <tr><td>Tenlo</td><td></td></tr>\n      <tr><td>O_Kenh</td><td></td></tr>\n      <tr><td>Loai</td><td></td></tr>\n      <tr><td>DTmay</td><td>0</td></tr>\n      <tr><td>DTtrong</td><td>0</td></tr>\n      <tr><td>Socay</td><td>0</td></tr>\n      <tr><td>Thang</td><td>0</td></tr>\n      <tr><td>Namtrong</td><td>0</td></tr>\n      <tr><td>Matdo</td><td>0</td></tr>\n      <tr><td>Ghichu</td><td></td></tr>\n      <tr><td>KML_FOLDER</td><td></td></tr>\n      <tr><td>tessellate</td><td>0</td></tr>\n        ", "timestamp": null, "begin": null, "end": null, "altitudeMode": "relativeToGround", "tessellate": -1, "extrude": 1, "visibility": 1, "drawOrder": null, "icon": null }, "geometry": { "type": "Point", "coordinates": [ 106.856912, 13.388477, 0.0 ] } },
{ "type": "Feature", "properties": { "Name": "LP3", "description": "<br><br><br>\n    <table border=\"1\" padding=\"0\">\n      <tr><td>NAME</td><td></td></tr>\n      <tr><td>LAYER</td><td></td></tr>\n      <tr><td>Congty</td><td></td></tr>\n      <tr><td>KLH</td><td></td></tr>\n      <tr><td>Phapnhan</td><td></td></tr>\n      <tr><td>Quantri</td><td></td></tr>\n      <tr><td>Khuvuc</td><td></td></tr>\n      <tr><td>XN</td><td></td></tr>\n      <tr><td>NT</td><td></td></tr>\n      <tr><td>Tenlo</td><td></td></tr>\n      <tr><td>O_Kenh</td><td></td></tr>\n      <tr><td>Loai</td><td></td></tr>\n      <tr><td>DTmay</td><td>0</td></tr>\n      <tr><td>DTtrong</td><td>0</td></tr>\n      <tr><td>Socay</td><td>0</td></tr>\n      <tr><td>Thang</td><td>0</td></tr>\n      <tr><td>Namtrong</td><td>0</td></tr>\n      <tr><td>Matdo</td><td>0</td></tr>\n      <tr><td>Ghichu</td><td></td></tr>\n      <tr><td>KML_FOLDER</td><td></td></tr>\n      <tr><td>tessellate</td><td>0</td></tr>\n        ", "timestamp": null, "begin": null, "end": null, "altitudeMode": "relativeToGround", "tessellate": -1, "extrude": 1, "visibility": 1, "drawOrder": null, "icon": null }, "geometry": { "type": "Point", "coordinates": [ 106.778732, 13.387357, 0.0 ] } },
{ "type": "Feature", "properties": { "Name": "LP2", "description": "<br><br><br>\n    <table border=\"1\" padding=\"0\">\n      <tr><td>NAME</td><td></td></tr>\n      <tr><td>LAYER</td><td></td></tr>\n      <tr><td>Congty</td><td></td></tr>\n      <tr><td>KLH</td><td></td></tr>\n      <tr><td>Phapnhan</td><td></td></tr>\n      <tr><td>Quantri</td><td></td></tr>\n      <tr><td>Khuvuc</td><td></td></tr>\n      <tr><td>XN</td><td></td></tr>\n      <tr><td>NT</td><td></td></tr>\n      <tr><td>Tenlo</td><td></td></tr>\n      <tr><td>O_Kenh</td><td></td></tr>\n      <tr><td>Loai</td><td></td></tr>\n      <tr><td>DTmay</td><td>0</td></tr>\n      <tr><td>DTtrong</td><td>0</td></tr>\n      <tr><td>Socay</td><td>0</td></tr>\n      <tr><td>Thang</td><td>0</td></tr>\n      <tr><td>Namtrong</td><td>0</td></tr>\n      <tr><td>Matdo</td><td>0</td></tr>\n      <tr><td>Ghichu</td><td></td></tr>\n      <tr><td>KML_FOLDER</td><td></td></tr>\n      <tr><td>tessellate</td><td>0</td></tr>\n        ", "timestamp": null, "begin": null, "end": null, "altitudeMode": "relativeToGround", "tessellate": -1, "extrude": 1, "visibility": 1, "drawOrder": null, "icon": null }, "geometry": { "type": "Point", "coordinates": [ 106.815421, 13.38773, 0.0 ] } }
]
}
