{
"type": "FeatureCollection",
"name": "Text_lo",
"crs": { "type": "name", "properties": { "name": "urn:ogc:def:crs:OGC:1.3:CRS84" } },
"features": [
{ "type": "Feature", "properties": { "Name": "5", "description": "<br><br><br>\n    <table border=\"1\" padding=\"0\">\n      <tr><td>Degrees</td><td></td></tr>\n      <tr><td>DMS</td><td></td></tr>\n        ", "timestamp": null, "begin": null, "end": null, "altitudeMode": "relativeToGround", "tessellate": -1, "extrude": 1, "visibility": 1, "drawOrder": null, "icon": null }, "geometry": { "type": "Point", "coordinates": [ 106.975686, 13.460553, 0.0 ] } },
{ "type": "Feature", "properties": { "Name": "6", "description": "<br><br><br>\n    <table border=\"1\" padding=\"0\">\n      <tr><td>Degrees</td><td></td></tr>\n      <tr><td>DMS</td><td></td></tr>\n        ", "timestamp": null, "begin": null, "end": null, "altitudeMode": "relativeToGround", "tessellate": -1, "extrude": 1, "visibility": 1, "drawOrder": null, "icon": null }, "geometry": { "type": "Point", "coordinates": [ 106.97561, 13.45364, 0.0 ] } },
{ "type": "Feature", "properties": { "Name": "7", "description": "<br><br><br>\n    <table border=\"1\" padding=\"0\">\n      <tr><td>Degrees</td><td></td></tr>\n      <tr><td>DMS</td><td></td></tr>\n        ", "timestamp": null, "begin": null, "end": null, "altitudeMode": "relativeToGround", "tessellate": -1, "extrude": 1, "visibility": 1, "drawOrder": null, "icon": null }, "geometry": { "type": "Point", "coordinates": [ 106.975421, 13.447278, 0.0 ] } },
{ "type": "Feature", "properties": { "Name": "8", "description": "<br><br><br>\n    <table border=\"1\" padding=\"0\">\n      <tr><td>Degrees</td><td></td></tr>\n      <tr><td>DMS</td><td></td></tr>\n        ", "timestamp": null, "begin": null, "end": null, "altitudeMode": "relativeToGround", "tessellate": -1, "extrude": 1, "visibility": 1, "drawOrder": null, "icon": null }, "geometry": { "type": "Point", "coordinates": [ 106.975397, 13.440557, 0.0 ] } },
{ "type": "Feature", "properties": { "Name": "9", "description": "<br><br><br>\n    <table border=\"1\" padding=\"0\">\n      <tr><td>Degrees</td><td></td></tr>\n      <tr><td>DMS</td><td></td></tr>\n        ", "timestamp": null, "begin": null, "end": null, "altitudeMode": "relativeToGround", "tessellate": -1, "extrude": 1, "visibility": 1, "drawOrder": null, "icon": null }, "geometry": { "type": "Point", "coordinates": [ 106.970712, 13.460579, 0.0 ] } },
{ "type": "Feature", "properties": { "Name": "10", "description": "<br><br><br>\n    <table border=\"1\" padding=\"0\">\n      <tr><td>Degrees</td><td></td></tr>\n      <tr><td>DMS</td><td></td></tr>\n        ", "timestamp": null, "begin": null, "end": null, "altitudeMode": "relativeToGround", "tessellate": -1, "extrude": 1, "visibility": 1, "drawOrder": null, "icon": null }, "geometry": { "type": "Point", "coordinates": [ 106.971093, 13.453675, 0.0 ] } },
{ "type": "Feature", "properties": { "Name": "11", "description": "<br><br><br>\n    <table border=\"1\" padding=\"0\">\n      <tr><td>Degrees</td><td></td></tr>\n      <tr><td>DMS</td><td></td></tr>\n        ", "timestamp": null, "begin": null, "end": null, "altitudeMode": "relativeToGround", "tessellate": -1, "extrude": 1, "visibility": 1, "drawOrder": null, "icon": null }, "geometry": { "type": "Point", "coordinates": [ 106.970943, 13.447548, 0.0 ] } },
{ "type": "Feature", "properties": { "Name": "12", "description": "<br><br><br>\n    <table border=\"1\" padding=\"0\">\n      <tr><td>Degrees</td><td></td></tr>\n      <tr><td>DMS</td><td></td></tr>\n        ", "timestamp": null, "begin": null, "end": null, "altitudeMode": "relativeToGround", "tessellate": -1, "extrude": 1, "visibility": 1, "drawOrder": null, "icon": null }, "geometry": { "type": "Point", "coordinates": [ 106.970949, 13.440618, 0.0 ] } },
{ "type": "Feature", "properties": { "Name": "13", "description": "<br><br><br>\n    <table border=\"1\" padding=\"0\">\n      <tr><td>Degrees</td><td></td></tr>\n      <tr><td>DMS</td><td></td></tr>\n        ", "timestamp": null, "begin": null, "end": null, "altitudeMode": "relativeToGround", "tessellate": -1, "extrude": 1, "visibility": 1, "drawOrder": null, "icon": null }, "geometry": { "type": "Point", "coordinates": [ 106.966896, 13.460712, 0.0 ] } },
{ "type": "Feature", "properties": { "Name": "14", "description": "<br><br><br>\n    <table border=\"1\" padding=\"0\">\n      <tr><td>Degrees</td><td></td></tr>\n      <tr><td>DMS</td><td></td></tr>\n        ", "timestamp": null, "begin": null, "end": null, "altitudeMode": "relativeToGround", "tessellate": -1, "extrude": 1, "visibility": 1, "drawOrder": null, "icon": null }, "geometry": { "type": "Point", "coordinates": [ 106.966773, 13.453798, 0.0 ] } },
{ "type": "Feature", "properties": { "Name": "15", "description": "<br><br><br>\n    <table border=\"1\" padding=\"0\">\n      <tr><td>Degrees</td><td></td></tr>\n      <tr><td>DMS</td><td></td></tr>\n        ", "timestamp": null, "begin": null, "end": null, "altitudeMode": "relativeToGround", "tessellate": -1, "extrude": 1, "visibility": 1, "drawOrder": null, "icon": null }, "geometry": { "type": "Point", "coordinates": [ 106.966593, 13.447579, 0.0 ] } },
{ "type": "Feature", "properties": { "Name": "16", "description": "<br><br><br>\n    <table border=\"1\" padding=\"0\">\n      <tr><td>Degrees</td><td></td></tr>\n      <tr><td>DMS</td><td></td></tr>\n        ", "timestamp": null, "begin": null, "end": null, "altitudeMode": "relativeToGround", "tessellate": -1, "extrude": 1, "visibility": 1, "drawOrder": null, "icon": null }, "geometry": { "type": "Point", "coordinates": [ 106.966559, 13.440821, 0.0 ] } },
{ "type": "Feature", "properties": { "Name": "17", "description": "<br><br><br>\n    <table border=\"1\" padding=\"0\">\n      <tr><td>Degrees</td><td></td></tr>\n      <tr><td>DMS</td><td></td></tr>\n        ", "timestamp": null, "begin": null, "end": null, "altitudeMode": "relativeToGround", "tessellate": -1, "extrude": 1, "visibility": 1, "drawOrder": null, "icon": null }, "geometry": { "type": "Point", "coordinates": [ 106.962532, 13.460582, 0.0 ] } },
{ "type": "Feature", "properties": { "Name": "18", "description": "<br><br><br>\n    <table border=\"1\" padding=\"0\">\n      <tr><td>Degrees</td><td></td></tr>\n      <tr><td>DMS</td><td></td></tr>\n        ", "timestamp": null, "begin": null, "end": null, "altitudeMode": "relativeToGround", "tessellate": -1, "extrude": 1, "visibility": 1, "drawOrder": null, "icon": null }, "geometry": { "type": "Point", "coordinates": [ 106.962109, 13.45369, 0.0 ] } },
{ "type": "Feature", "properties": { "Name": "19", "description": "<br><br><br>\n    <table border=\"1\" padding=\"0\">\n      <tr><td>Degrees</td><td></td></tr>\n      <tr><td>DMS</td><td></td></tr>\n        ", "timestamp": null, "begin": null, "end": null, "altitudeMode": "relativeToGround", "tessellate": -1, "extrude": 1, "visibility": 1, "drawOrder": null, "icon": null }, "geometry": { "type": "Point", "coordinates": [ 106.961514, 13.447566, 0.0 ] } },
{ "type": "Feature", "properties": { "Name": "20", "description": "<br><br><br>\n    <table border=\"1\" padding=\"0\">\n      <tr><td>Degrees</td><td></td></tr>\n      <tr><td>DMS</td><td></td></tr>\n        ", "timestamp": null, "begin": null, "end": null, "altitudeMode": "relativeToGround", "tessellate": -1, "extrude": 1, "visibility": 1, "drawOrder": null, "icon": null }, "geometry": { "type": "Point", "coordinates": [ 106.961725, 13.440823, 0.0 ] } },
{ "type": "Feature", "properties": { "Name": "21", "description": "<br><br><br>\n    <table border=\"1\" padding=\"0\">\n      <tr><td>Degrees</td><td></td></tr>\n      <tr><td>DMS</td><td></td></tr>\n        ", "timestamp": null, "begin": null, "end": null, "altitudeMode": "relativeToGround", "tessellate": -1, "extrude": 1, "visibility": 1, "drawOrder": null, "icon": null }, "geometry": { "type": "Point", "coordinates": [ 106.957245, 13.458046, 0.0 ] } },
{ "type": "Feature", "properties": { "Name": "22", "description": "<br><br><br>\n    <table border=\"1\" padding=\"0\">\n      <tr><td>Degrees</td><td></td></tr>\n      <tr><td>DMS</td><td></td></tr>\n        ", "timestamp": null, "begin": null, "end": null, "altitudeMode": "relativeToGround", "tessellate": -1, "extrude": 1, "visibility": 1, "drawOrder": null, "icon": null }, "geometry": { "type": "Point", "coordinates": [ 106.957549, 13.453785, 0.0 ] } },
{ "type": "Feature", "properties": { "Name": "23", "description": "<br><br><br>\n    <table border=\"1\" padding=\"0\">\n      <tr><td>Degrees</td><td></td></tr>\n      <tr><td>DMS</td><td></td></tr>\n        ", "timestamp": null, "begin": null, "end": null, "altitudeMode": "relativeToGround", "tessellate": -1, "extrude": 1, "visibility": 1, "drawOrder": null, "icon": null }, "geometry": { "type": "Point", "coordinates": [ 106.957065, 13.447504, 0.0 ] } },
{ "type": "Feature", "properties": { "Name": "24", "description": "<br><br><br>\n    <table border=\"1\" padding=\"0\">\n      <tr><td>Degrees</td><td></td></tr>\n      <tr><td>DMS</td><td></td></tr>\n        ", "timestamp": null, "begin": null, "end": null, "altitudeMode": "relativeToGround", "tessellate": -1, "extrude": 1, "visibility": 1, "drawOrder": null, "icon": null }, "geometry": { "type": "Point", "coordinates": [ 106.957201, 13.440806, 0.0 ] } },
{ "type": "Feature", "properties": { "Name": "25", "description": "<br><br><br>\n    <table border=\"1\" padding=\"0\">\n      <tr><td>Degrees</td><td></td></tr>\n      <tr><td>DMS</td><td></td></tr>\n        ", "timestamp": null, "begin": null, "end": null, "altitudeMode": "relativeToGround", "tessellate": -1, "extrude": 1, "visibility": 1, "drawOrder": null, "icon": null }, "geometry": { "type": "Point", "coordinates": [ 106.951787, 13.458021, 0.0 ] } },
{ "type": "Feature", "properties": { "Name": "26", "description": "<br><br><br>\n    <table border=\"1\" padding=\"0\">\n      <tr><td>Degrees</td><td></td></tr>\n      <tr><td>DMS</td><td></td></tr>\n        ", "timestamp": null, "begin": null, "end": null, "altitudeMode": "relativeToGround", "tessellate": -1, "extrude": 1, "visibility": 1, "drawOrder": null, "icon": null }, "geometry": { "type": "Point", "coordinates": [ 106.951569, 13.453965, 0.0 ] } },
{ "type": "Feature", "properties": { "Name": "27", "description": "<br><br><br>\n    <table border=\"1\" padding=\"0\">\n      <tr><td>Degrees</td><td></td></tr>\n      <tr><td>DMS</td><td></td></tr>\n        ", "timestamp": null, "begin": null, "end": null, "altitudeMode": "relativeToGround", "tessellate": -1, "extrude": 1, "visibility": 1, "drawOrder": null, "icon": null }, "geometry": { "type": "Point", "coordinates": [ 106.951456, 13.447542, 0.0 ] } },
{ "type": "Feature", "properties": { "Name": "28", "description": "<br><br><br>\n    <table border=\"1\" padding=\"0\">\n      <tr><td>Degrees</td><td></td></tr>\n      <tr><td>DMS</td><td></td></tr>\n        ", "timestamp": null, "begin": null, "end": null, "altitudeMode": "relativeToGround", "tessellate": -1, "extrude": 1, "visibility": 1, "drawOrder": null, "icon": null }, "geometry": { "type": "Point", "coordinates": [ 106.950917, 13.440828, 0.0 ] } },
{ "type": "Feature", "properties": { "Name": "30", "description": "<br><br><br>\n    <table border=\"1\" padding=\"0\">\n      <tr><td>Degrees</td><td></td></tr>\n      <tr><td>DMS</td><td></td></tr>\n        ", "timestamp": null, "begin": null, "end": null, "altitudeMode": "relativeToGround", "tessellate": -1, "extrude": 1, "visibility": 1, "drawOrder": null, "icon": null }, "geometry": { "type": "Point", "coordinates": [ 106.944635, 13.453862, 0.0 ] } },
{ "type": "Feature", "properties": { "Name": "31", "description": "<br><br><br>\n    <table border=\"1\" padding=\"0\">\n      <tr><td>Degrees</td><td></td></tr>\n      <tr><td>DMS</td><td></td></tr>\n        ", "timestamp": null, "begin": null, "end": null, "altitudeMode": "relativeToGround", "tessellate": -1, "extrude": 1, "visibility": 1, "drawOrder": null, "icon": null }, "geometry": { "type": "Point", "coordinates": [ 106.94469, 13.447639, 0.0 ] } },
{ "type": "Feature", "properties": { "Name": "32", "description": "<br><br><br>\n    <table border=\"1\" padding=\"0\">\n      <tr><td>Degrees</td><td></td></tr>\n      <tr><td>DMS</td><td></td></tr>\n        ", "timestamp": null, "begin": null, "end": null, "altitudeMode": "relativeToGround", "tessellate": -1, "extrude": 1, "visibility": 1, "drawOrder": null, "icon": null }, "geometry": { "type": "Point", "coordinates": [ 106.947068, 13.441082, 0.0 ] } },
{ "type": "Feature", "properties": { "Name": "1", "description": "<br><br><br>\n    <table border=\"1\" padding=\"0\">\n      <tr><td>Degrees</td><td></td></tr>\n      <tr><td>DMS</td><td></td></tr>\n        ", "timestamp": null, "begin": null, "end": null, "altitudeMode": "relativeToGround", "tessellate": -1, "extrude": 1, "visibility": 1, "drawOrder": null, "icon": null }, "geometry": { "type": "Point", "coordinates": [ 106.979544, 13.460485, 0.0 ] } },
{ "type": "Feature", "properties": { "Name": "2", "description": "<br><br><br>\n    <table border=\"1\" padding=\"0\">\n      <tr><td>Degrees</td><td></td></tr>\n      <tr><td>DMS</td><td></td></tr>\n        ", "timestamp": null, "begin": null, "end": null, "altitudeMode": "relativeToGround", "tessellate": -1, "extrude": 1, "visibility": 1, "drawOrder": null, "icon": null }, "geometry": { "type": "Point", "coordinates": [ 106.979523, 13.453495, 0.0 ] } },
{ "type": "Feature", "properties": { "Name": "3", "description": "<br><br><br>\n    <table border=\"1\" padding=\"0\">\n      <tr><td>Degrees</td><td></td></tr>\n      <tr><td>DMS</td><td></td></tr>\n        ", "timestamp": null, "begin": null, "end": null, "altitudeMode": "relativeToGround", "tessellate": -1, "extrude": 1, "visibility": 1, "drawOrder": null, "icon": null }, "geometry": { "type": "Point", "coordinates": [ 106.979757, 13.447276, 0.0 ] } },
{ "type": "Feature", "properties": { "Name": "4", "description": "<br><br><br>\n    <table border=\"1\" padding=\"0\">\n      <tr><td>Degrees</td><td></td></tr>\n      <tr><td>DMS</td><td></td></tr>\n        ", "timestamp": null, "begin": null, "end": null, "altitudeMode": "relativeToGround", "tessellate": -1, "extrude": 1, "visibility": 1, "drawOrder": null, "icon": null }, "geometry": { "type": "Point", "coordinates": [ 106.9797, 13.440853, 0.0 ] } },
{ "type": "Feature", "properties": { "Name": "22", "description": "<br><br><br>\n    <table border=\"1\" padding=\"0\">\n      <tr><td>Degrees</td><td></td></tr>\n      <tr><td>DMS</td><td></td></tr>\n        ", "timestamp": null, "begin": null, "end": null, "altitudeMode": "relativeToGround", "tessellate": -1, "extrude": 1, "visibility": 1, "drawOrder": null, "icon": null }, "geometry": { "type": "Point", "coordinates": [ 106.907518, 13.460832, 0.0 ] } },
{ "type": "Feature", "properties": { "Name": "18", "description": "<br><br><br>\n    <table border=\"1\" padding=\"0\">\n      <tr><td>Degrees</td><td></td></tr>\n      <tr><td>DMS</td><td></td></tr>\n        ", "timestamp": null, "begin": null, "end": null, "altitudeMode": "relativeToGround", "tessellate": -1, "extrude": 1, "visibility": 1, "drawOrder": null, "icon": null }, "geometry": { "type": "Point", "coordinates": [ 106.914327, 13.460751, 0.0 ] } },
{ "type": "Feature", "properties": { "Name": "14", "description": "<br><br><br>\n    <table border=\"1\" padding=\"0\">\n      <tr><td>Degrees</td><td></td></tr>\n      <tr><td>DMS</td><td></td></tr>\n        ", "timestamp": null, "begin": null, "end": null, "altitudeMode": "relativeToGround", "tessellate": -1, "extrude": 1, "visibility": 1, "drawOrder": null, "icon": null }, "geometry": { "type": "Point", "coordinates": [ 106.921426, 13.460751, 0.0 ] } },
{ "type": "Feature", "properties": { "Name": "23", "description": "<br><br><br>\n    <table border=\"1\" padding=\"0\">\n      <tr><td>Degrees</td><td></td></tr>\n      <tr><td>DMS</td><td></td></tr>\n        ", "timestamp": null, "begin": null, "end": null, "altitudeMode": "relativeToGround", "tessellate": -1, "extrude": 1, "visibility": 1, "drawOrder": null, "icon": null }, "geometry": { "type": "Point", "coordinates": [ 106.907602, 13.454089, 0.0 ] } },
{ "type": "Feature", "properties": { "Name": "19", "description": "<br><br><br>\n    <table border=\"1\" padding=\"0\">\n      <tr><td>Degrees</td><td></td></tr>\n      <tr><td>DMS</td><td></td></tr>\n        ", "timestamp": null, "begin": null, "end": null, "altitudeMode": "relativeToGround", "tessellate": -1, "extrude": 1, "visibility": 1, "drawOrder": null, "icon": null }, "geometry": { "type": "Point", "coordinates": [ 106.914576, 13.454049, 0.0 ] } },
{ "type": "Feature", "properties": { "Name": "15", "description": "<br><br><br>\n    <table border=\"1\" padding=\"0\">\n      <tr><td>Degrees</td><td></td></tr>\n      <tr><td>DMS</td><td></td></tr>\n        ", "timestamp": null, "begin": null, "end": null, "altitudeMode": "relativeToGround", "tessellate": -1, "extrude": 1, "visibility": 1, "drawOrder": null, "icon": null }, "geometry": { "type": "Point", "coordinates": [ 106.921509, 13.453968, 0.0 ] } },
{ "type": "Feature", "properties": { "Name": "11", "description": "<br><br><br>\n    <table border=\"1\" padding=\"0\">\n      <tr><td>Degrees</td><td></td></tr>\n      <tr><td>DMS</td><td></td></tr>\n        ", "timestamp": null, "begin": null, "end": null, "altitudeMode": "relativeToGround", "tessellate": -1, "extrude": 1, "visibility": 1, "drawOrder": null, "icon": null }, "geometry": { "type": "Point", "coordinates": [ 106.928441, 13.454009, 0.0 ] } },
{ "type": "Feature", "properties": { "Name": "7", "description": "<br><br><br>\n    <table border=\"1\" padding=\"0\">\n      <tr><td>Degrees</td><td></td></tr>\n      <tr><td>DMS</td><td></td></tr>\n        ", "timestamp": null, "begin": null, "end": null, "altitudeMode": "relativeToGround", "tessellate": -1, "extrude": 1, "visibility": 1, "drawOrder": null, "icon": null }, "geometry": { "type": "Point", "coordinates": [ 106.933995, 13.453689, 0.0 ] } },
{ "type": "Feature", "properties": { "Name": "24", "description": "<br><br><br>\n    <table border=\"1\" padding=\"0\">\n      <tr><td>Degrees</td><td></td></tr>\n      <tr><td>DMS</td><td></td></tr>\n        ", "timestamp": null, "begin": null, "end": null, "altitudeMode": "relativeToGround", "tessellate": -1, "extrude": 1, "visibility": 1, "drawOrder": null, "icon": null }, "geometry": { "type": "Point", "coordinates": [ 106.907436, 13.447186, 0.0 ] } },
{ "type": "Feature", "properties": { "Name": "20", "description": "<br><br><br>\n    <table border=\"1\" padding=\"0\">\n      <tr><td>Degrees</td><td></td></tr>\n      <tr><td>DMS</td><td></td></tr>\n        ", "timestamp": null, "begin": null, "end": null, "altitudeMode": "relativeToGround", "tessellate": -1, "extrude": 1, "visibility": 1, "drawOrder": null, "icon": null }, "geometry": { "type": "Point", "coordinates": [ 106.914659, 13.447266, 0.0 ] } },
{ "type": "Feature", "properties": { "Name": "16", "description": "<br><br><br>\n    <table border=\"1\" padding=\"0\">\n      <tr><td>Degrees</td><td></td></tr>\n      <tr><td>DMS</td><td></td></tr>\n        ", "timestamp": null, "begin": null, "end": null, "altitudeMode": "relativeToGround", "tessellate": -1, "extrude": 1, "visibility": 1, "drawOrder": null, "icon": null }, "geometry": { "type": "Point", "coordinates": [ 106.921509, 13.447307, 0.0 ] } },
{ "type": "Feature", "properties": { "Name": "12", "description": "<br><br><br>\n    <table border=\"1\" padding=\"0\">\n      <tr><td>Degrees</td><td></td></tr>\n      <tr><td>DMS</td><td></td></tr>\n        ", "timestamp": null, "begin": null, "end": null, "altitudeMode": "relativeToGround", "tessellate": -1, "extrude": 1, "visibility": 1, "drawOrder": null, "icon": null }, "geometry": { "type": "Point", "coordinates": [ 106.9284, 13.447226, 0.0 ] } },
{ "type": "Feature", "properties": { "Name": "8", "description": "<br><br><br>\n    <table border=\"1\" padding=\"0\">\n      <tr><td>Degrees</td><td></td></tr>\n      <tr><td>DMS</td><td></td></tr>\n        ", "timestamp": null, "begin": null, "end": null, "altitudeMode": "relativeToGround", "tessellate": -1, "extrude": 1, "visibility": 1, "drawOrder": null, "icon": null }, "geometry": { "type": "Point", "coordinates": [ 106.933769, 13.447145, 0.0 ] } },
{ "type": "Feature", "properties": { "Name": "4", "description": "<br><br><br>\n    <table border=\"1\" padding=\"0\">\n      <tr><td>Degrees</td><td></td></tr>\n      <tr><td>DMS</td><td></td></tr>\n        ", "timestamp": null, "begin": null, "end": null, "altitudeMode": "relativeToGround", "tessellate": -1, "extrude": 1, "visibility": 1, "drawOrder": null, "icon": null }, "geometry": { "type": "Point", "coordinates": [ 106.938682, 13.447037, 0.0 ] } },
{ "type": "Feature", "properties": { "Name": "25", "description": "<br><br><br>\n    <table border=\"1\" padding=\"0\">\n      <tr><td>Degrees</td><td></td></tr>\n      <tr><td>DMS</td><td></td></tr>\n        ", "timestamp": null, "begin": null, "end": null, "altitudeMode": "relativeToGround", "tessellate": -1, "extrude": 1, "visibility": 1, "drawOrder": null, "icon": null }, "geometry": { "type": "Point", "coordinates": [ 106.907394, 13.440524, 0.0 ] } },
{ "type": "Feature", "properties": { "Name": "21", "description": "<br><br><br>\n    <table border=\"1\" padding=\"0\">\n      <tr><td>Degrees</td><td></td></tr>\n      <tr><td>DMS</td><td></td></tr>\n        ", "timestamp": null, "begin": null, "end": null, "altitudeMode": "relativeToGround", "tessellate": -1, "extrude": 1, "visibility": 1, "drawOrder": null, "icon": null }, "geometry": { "type": "Point", "coordinates": [ 106.914493, 13.440443, 0.0 ] } },
{ "type": "Feature", "properties": { "Name": "17", "description": "<br><br><br>\n    <table border=\"1\" padding=\"0\">\n      <tr><td>Degrees</td><td></td></tr>\n      <tr><td>DMS</td><td></td></tr>\n        ", "timestamp": null, "begin": null, "end": null, "altitudeMode": "relativeToGround", "tessellate": -1, "extrude": 1, "visibility": 1, "drawOrder": null, "icon": null }, "geometry": { "type": "Point", "coordinates": [ 106.921509, 13.440403, 0.0 ] } },
{ "type": "Feature", "properties": { "Name": "13", "description": "<br><br><br>\n    <table border=\"1\" padding=\"0\">\n      <tr><td>Degrees</td><td></td></tr>\n      <tr><td>DMS</td><td></td></tr>\n        ", "timestamp": null, "begin": null, "end": null, "altitudeMode": "relativeToGround", "tessellate": -1, "extrude": 1, "visibility": 1, "drawOrder": null, "icon": null }, "geometry": { "type": "Point", "coordinates": [ 106.928335, 13.440616, 0.0 ] } },
{ "type": "Feature", "properties": { "Name": "9", "description": "<br><br><br>\n    <table border=\"1\" padding=\"0\">\n      <tr><td>Degrees</td><td></td></tr>\n      <tr><td>DMS</td><td></td></tr>\n        ", "timestamp": null, "begin": null, "end": null, "altitudeMode": "relativeToGround", "tessellate": -1, "extrude": 1, "visibility": 1, "drawOrder": null, "icon": null }, "geometry": { "type": "Point", "coordinates": [ 106.933583, 13.440542, 0.0 ] } },
{ "type": "Feature", "properties": { "Name": "5", "description": "<br><br><br>\n    <table border=\"1\" padding=\"0\">\n      <tr><td>Degrees</td><td></td></tr>\n      <tr><td>DMS</td><td></td></tr>\n        ", "timestamp": null, "begin": null, "end": null, "altitudeMode": "relativeToGround", "tessellate": -1, "extrude": 1, "visibility": 1, "drawOrder": null, "icon": null }, "geometry": { "type": "Point", "coordinates": [ 106.938626, 13.44038, 0.0 ] } },
{ "type": "Feature", "properties": { "Name": "1", "description": "<br><br><br>\n    <table border=\"1\" padding=\"0\">\n      <tr><td>Degrees</td><td></td></tr>\n      <tr><td>DMS</td><td></td></tr>\n        ", "timestamp": null, "begin": null, "end": null, "altitudeMode": "relativeToGround", "tessellate": -1, "extrude": 1, "visibility": 1, "drawOrder": null, "icon": null }, "geometry": { "type": "Point", "coordinates": [ 106.942206, 13.440374, 0.0 ] } },
{ "type": "Feature", "properties": { "Name": "3", "description": "<br><br><br>\n    <table border=\"1\" padding=\"0\">\n      <tr><td>Degrees</td><td></td></tr>\n      <tr><td>DMS</td><td></td></tr>\n        ", "timestamp": null, "begin": null, "end": null, "altitudeMode": "relativeToGround", "tessellate": -1, "extrude": 1, "visibility": 1, "drawOrder": null, "icon": null }, "geometry": { "type": "Point", "coordinates": [ 106.937634, 13.451454, 0.0 ] } },
{ "type": "Feature", "properties": { "Name": "1", "description": "<br><br><br>\n    <table border=\"1\" padding=\"0\">\n      <tr><td>Degrees</td><td></td></tr>\n      <tr><td>DMS</td><td></td></tr>\n        ", "timestamp": null, "begin": null, "end": null, "altitudeMode": "relativeToGround", "tessellate": -1, "extrude": 1, "visibility": 1, "drawOrder": null, "icon": null }, "geometry": { "type": "Point", "coordinates": [ 106.999337, 13.425194, 0.0 ] } },
{ "type": "Feature", "properties": { "Name": "2", "description": "<br><br><br>\n    <table border=\"1\" padding=\"0\">\n      <tr><td>Degrees</td><td></td></tr>\n      <tr><td>DMS</td><td></td></tr>\n        ", "timestamp": null, "begin": null, "end": null, "altitudeMode": "relativeToGround", "tessellate": -1, "extrude": 1, "visibility": 1, "drawOrder": null, "icon": null }, "geometry": { "type": "Point", "coordinates": [ 106.999908, 13.417188, 0.0 ] } },
{ "type": "Feature", "properties": { "Name": "3", "description": "<br><br><br>\n    <table border=\"1\" padding=\"0\">\n      <tr><td>Degrees</td><td></td></tr>\n      <tr><td>DMS</td><td></td></tr>\n        ", "timestamp": null, "begin": null, "end": null, "altitudeMode": "relativeToGround", "tessellate": -1, "extrude": 1, "visibility": 1, "drawOrder": null, "icon": null }, "geometry": { "type": "Point", "coordinates": [ 106.999856, 13.410358, 0.0 ] } },
{ "type": "Feature", "properties": { "Name": "4", "description": "<br><br><br>\n    <table border=\"1\" padding=\"0\">\n      <tr><td>Degrees</td><td></td></tr>\n      <tr><td>DMS</td><td></td></tr>\n        ", "timestamp": null, "begin": null, "end": null, "altitudeMode": "relativeToGround", "tessellate": -1, "extrude": 1, "visibility": 1, "drawOrder": null, "icon": null }, "geometry": { "type": "Point", "coordinates": [ 106.999908, 13.405523, 0.0 ] } },
{ "type": "Feature", "properties": { "Name": "5", "description": "<br><br><br>\n    <table border=\"1\" padding=\"0\">\n      <tr><td>Degrees</td><td></td></tr>\n      <tr><td>DMS</td><td></td></tr>\n        ", "timestamp": null, "begin": null, "end": null, "altitudeMode": "relativeToGround", "tessellate": -1, "extrude": 1, "visibility": 1, "drawOrder": null, "icon": null }, "geometry": { "type": "Point", "coordinates": [ 106.994578, 13.458766, 0.0 ] } },
{ "type": "Feature", "properties": { "Name": "6", "description": "<br><br><br>\n    <table border=\"1\" padding=\"0\">\n      <tr><td>Degrees</td><td></td></tr>\n      <tr><td>DMS</td><td></td></tr>\n        ", "timestamp": null, "begin": null, "end": null, "altitudeMode": "relativeToGround", "tessellate": -1, "extrude": 1, "visibility": 1, "drawOrder": null, "icon": null }, "geometry": { "type": "Point", "coordinates": [ 106.994576, 13.449792, 0.0 ] } },
{ "type": "Feature", "properties": { "Name": "7", "description": "<br><br><br>\n    <table border=\"1\" padding=\"0\">\n      <tr><td>Degrees</td><td></td></tr>\n      <tr><td>DMS</td><td></td></tr>\n        ", "timestamp": null, "begin": null, "end": null, "altitudeMode": "relativeToGround", "tessellate": -1, "extrude": 1, "visibility": 1, "drawOrder": null, "icon": null }, "geometry": { "type": "Point", "coordinates": [ 106.994371, 13.440818, 0.0 ] } },
{ "type": "Feature", "properties": { "Name": "8", "description": "<br><br><br>\n    <table border=\"1\" padding=\"0\">\n      <tr><td>Degrees</td><td></td></tr>\n      <tr><td>DMS</td><td></td></tr>\n        ", "timestamp": null, "begin": null, "end": null, "altitudeMode": "relativeToGround", "tessellate": -1, "extrude": 1, "visibility": 1, "drawOrder": null, "icon": null }, "geometry": { "type": "Point", "coordinates": [ 106.994265, 13.431795, 0.0 ] } },
{ "type": "Feature", "properties": { "Name": "9", "description": "<br><br><br>\n    <table border=\"1\" padding=\"0\">\n      <tr><td>Degrees</td><td></td></tr>\n      <tr><td>DMS</td><td></td></tr>\n        ", "timestamp": null, "begin": null, "end": null, "altitudeMode": "relativeToGround", "tessellate": -1, "extrude": 1, "visibility": 1, "drawOrder": null, "icon": null }, "geometry": { "type": "Point", "coordinates": [ 106.991142, 13.458768, 0.0 ] } },
{ "type": "Feature", "properties": { "Name": "10", "description": "<br><br><br>\n    <table border=\"1\" padding=\"0\">\n      <tr><td>Degrees</td><td></td></tr>\n      <tr><td>DMS</td><td></td></tr>\n        ", "timestamp": null, "begin": null, "end": null, "altitudeMode": "relativeToGround", "tessellate": -1, "extrude": 1, "visibility": 1, "drawOrder": null, "icon": null }, "geometry": { "type": "Point", "coordinates": [ 106.991338, 13.449993, 0.0 ] } },
{ "type": "Feature", "properties": { "Name": "11", "description": "<br><br><br>\n    <table border=\"1\" padding=\"0\">\n      <tr><td>Degrees</td><td></td></tr>\n      <tr><td>DMS</td><td></td></tr>\n        ", "timestamp": null, "begin": null, "end": null, "altitudeMode": "relativeToGround", "tessellate": -1, "extrude": 1, "visibility": 1, "drawOrder": null, "icon": null }, "geometry": { "type": "Point", "coordinates": [ 106.990877, 13.44067, 0.0 ] } },
{ "type": "Feature", "properties": { "Name": "12", "description": "<br><br><br>\n    <table border=\"1\" padding=\"0\">\n      <tr><td>Degrees</td><td></td></tr>\n      <tr><td>DMS</td><td></td></tr>\n        ", "timestamp": null, "begin": null, "end": null, "altitudeMode": "relativeToGround", "tessellate": -1, "extrude": 1, "visibility": 1, "drawOrder": null, "icon": null }, "geometry": { "type": "Point", "coordinates": [ 106.991184, 13.431894, 0.0 ] } },
{ "type": "Feature", "properties": { "Name": "13", "description": "<br><br><br>\n    <table border=\"1\" padding=\"0\">\n      <tr><td>Degrees</td><td></td></tr>\n      <tr><td>DMS</td><td></td></tr>\n        ", "timestamp": null, "begin": null, "end": null, "altitudeMode": "relativeToGround", "tessellate": -1, "extrude": 1, "visibility": 1, "drawOrder": null, "icon": null }, "geometry": { "type": "Point", "coordinates": [ 106.992773, 13.424964, 0.0 ] } },
{ "type": "Feature", "properties": { "Name": "14", "description": "<br><br><br>\n    <table border=\"1\" padding=\"0\">\n      <tr><td>Degrees</td><td></td></tr>\n      <tr><td>DMS</td><td></td></tr>\n        ", "timestamp": null, "begin": null, "end": null, "altitudeMode": "relativeToGround", "tessellate": -1, "extrude": 1, "visibility": 1, "drawOrder": null, "icon": null }, "geometry": { "type": "Point", "coordinates": [ 106.992927, 13.417037, 0.0 ] } },
{ "type": "Feature", "properties": { "Name": "15", "description": "<br><br><br>\n    <table border=\"1\" padding=\"0\">\n      <tr><td>Degrees</td><td></td></tr>\n      <tr><td>DMS</td><td></td></tr>\n        ", "timestamp": null, "begin": null, "end": null, "altitudeMode": "relativeToGround", "tessellate": -1, "extrude": 1, "visibility": 1, "drawOrder": null, "icon": null }, "geometry": { "type": "Point", "coordinates": [ 106.992517, 13.410506, 0.0 ] } },
{ "type": "Feature", "properties": { "Name": "16", "description": "<br><br><br>\n    <table border=\"1\" padding=\"0\">\n      <tr><td>Degrees</td><td></td></tr>\n      <tr><td>DMS</td><td></td></tr>\n        ", "timestamp": null, "begin": null, "end": null, "altitudeMode": "relativeToGround", "tessellate": -1, "extrude": 1, "visibility": 1, "drawOrder": null, "icon": null }, "geometry": { "type": "Point", "coordinates": [ 106.992415, 13.404374, 0.0 ] } },
{ "type": "Feature", "properties": { "Name": "17", "description": "<br><br><br>\n    <table border=\"1\" padding=\"0\">\n      <tr><td>Degrees</td><td></td></tr>\n      <tr><td>DMS</td><td></td></tr>\n        ", "timestamp": null, "begin": null, "end": null, "altitudeMode": "relativeToGround", "tessellate": -1, "extrude": 1, "visibility": 1, "drawOrder": null, "icon": null }, "geometry": { "type": "Point", "coordinates": [ 106.98693, 13.458867, 0.0 ] } },
{ "type": "Feature", "properties": { "Name": "18", "description": "<br><br><br>\n    <table border=\"1\" padding=\"0\">\n      <tr><td>Degrees</td><td></td></tr>\n      <tr><td>DMS</td><td></td></tr>\n        ", "timestamp": null, "begin": null, "end": null, "altitudeMode": "relativeToGround", "tessellate": -1, "extrude": 1, "visibility": 1, "drawOrder": null, "icon": null }, "geometry": { "type": "Point", "coordinates": [ 106.986673, 13.449992, 0.0 ] } },
{ "type": "Feature", "properties": { "Name": "19", "description": "<br><br><br>\n    <table border=\"1\" padding=\"0\">\n      <tr><td>Degrees</td><td></td></tr>\n      <tr><td>DMS</td><td></td></tr>\n        ", "timestamp": null, "begin": null, "end": null, "altitudeMode": "relativeToGround", "tessellate": -1, "extrude": 1, "visibility": 1, "drawOrder": null, "icon": null }, "geometry": { "type": "Point", "coordinates": [ 106.987592, 13.440769, 0.0 ] } },
{ "type": "Feature", "properties": { "Name": "20", "description": "<br><br><br>\n    <table border=\"1\" padding=\"0\">\n      <tr><td>Degrees</td><td></td></tr>\n      <tr><td>DMS</td><td></td></tr>\n        ", "timestamp": null, "begin": null, "end": null, "altitudeMode": "relativeToGround", "tessellate": -1, "extrude": 1, "visibility": 1, "drawOrder": null, "icon": null }, "geometry": { "type": "Point", "coordinates": [ 106.987544, 13.431994, 0.0 ] } },
{ "type": "Feature", "properties": { "Name": "21", "description": "<br><br><br>\n    <table border=\"1\" padding=\"0\">\n      <tr><td>Degrees</td><td></td></tr>\n      <tr><td>DMS</td><td></td></tr>\n        ", "timestamp": null, "begin": null, "end": null, "altitudeMode": "relativeToGround", "tessellate": -1, "extrude": 1, "visibility": 1, "drawOrder": null, "icon": null }, "geometry": { "type": "Point", "coordinates": [ 106.987082, 13.425065, 0.0 ] } },
{ "type": "Feature", "properties": { "Name": "22", "description": "<br><br><br>\n    <table border=\"1\" padding=\"0\">\n      <tr><td>Degrees</td><td></td></tr>\n      <tr><td>DMS</td><td></td></tr>\n        ", "timestamp": null, "begin": null, "end": null, "altitudeMode": "relativeToGround", "tessellate": -1, "extrude": 1, "visibility": 1, "drawOrder": null, "icon": null }, "geometry": { "type": "Point", "coordinates": [ 106.986826, 13.417187, 0.0 ] } },
{ "type": "Feature", "properties": { "Name": "23", "description": "<br><br><br>\n    <table border=\"1\" padding=\"0\">\n      <tr><td>Degrees</td><td></td></tr>\n      <tr><td>DMS</td><td></td></tr>\n        ", "timestamp": null, "begin": null, "end": null, "altitudeMode": "relativeToGround", "tessellate": -1, "extrude": 1, "visibility": 1, "drawOrder": null, "icon": null }, "geometry": { "type": "Point", "coordinates": [ 106.986672, 13.410556, 0.0 ] } },
{ "type": "Feature", "properties": { "Name": "24", "description": "<br><br><br>\n    <table border=\"1\" padding=\"0\">\n      <tr><td>Degrees</td><td></td></tr>\n      <tr><td>DMS</td><td></td></tr>\n        ", "timestamp": null, "begin": null, "end": null, "altitudeMode": "relativeToGround", "tessellate": -1, "extrude": 1, "visibility": 1, "drawOrder": null, "icon": null }, "geometry": { "type": "Point", "coordinates": [ 106.986519, 13.404474, 0.0 ] } },
{ "type": "Feature", "properties": { "Name": "25", "description": "<br><br><br>\n    <table border=\"1\" padding=\"0\">\n      <tr><td>Degrees</td><td></td></tr>\n      <tr><td>DMS</td><td></td></tr>\n        ", "timestamp": null, "begin": null, "end": null, "altitudeMode": "relativeToGround", "tessellate": -1, "extrude": 1, "visibility": 1, "drawOrder": null, "icon": null }, "geometry": { "type": "Point", "coordinates": [ 106.982776, 13.431996, 0.0 ] } },
{ "type": "Feature", "properties": { "Name": "26", "description": "<br><br><br>\n    <table border=\"1\" padding=\"0\">\n      <tr><td>Degrees</td><td></td></tr>\n      <tr><td>DMS</td><td></td></tr>\n        ", "timestamp": null, "begin": null, "end": null, "altitudeMode": "relativeToGround", "tessellate": -1, "extrude": 1, "visibility": 1, "drawOrder": null, "icon": null }, "geometry": { "type": "Point", "coordinates": [ 106.981905, 13.425015, 0.0 ] } },
{ "type": "Feature", "properties": { "Name": "27", "description": "<br><br><br>\n    <table border=\"1\" padding=\"0\">\n      <tr><td>Degrees</td><td></td></tr>\n      <tr><td>DMS</td><td></td></tr>\n        ", "timestamp": null, "begin": null, "end": null, "altitudeMode": "relativeToGround", "tessellate": -1, "extrude": 1, "visibility": 1, "drawOrder": null, "icon": null }, "geometry": { "type": "Point", "coordinates": [ 106.98129, 13.417187, 0.0 ] } },
{ "type": "Feature", "properties": { "Name": "28", "description": "<br><br><br>\n    <table border=\"1\" padding=\"0\">\n      <tr><td>Degrees</td><td></td></tr>\n      <tr><td>DMS</td><td></td></tr>\n        ", "timestamp": null, "begin": null, "end": null, "altitudeMode": "relativeToGround", "tessellate": -1, "extrude": 1, "visibility": 1, "drawOrder": null, "icon": null }, "geometry": { "type": "Point", "coordinates": [ 106.98129, 13.410306, 0.0 ] } },
{ "type": "Feature", "properties": { "Name": "29", "description": "<br><br><br>\n    <table border=\"1\" padding=\"0\">\n      <tr><td>Degrees</td><td></td></tr>\n      <tr><td>DMS</td><td></td></tr>\n        ", "timestamp": null, "begin": null, "end": null, "altitudeMode": "relativeToGround", "tessellate": -1, "extrude": 1, "visibility": 1, "drawOrder": null, "icon": null }, "geometry": { "type": "Point", "coordinates": [ 106.981341, 13.404572, 0.0 ] } },
{ "type": "Feature", "properties": { "Name": "10", "description": "<br><br><br>\n    <table border=\"1\" padding=\"0\">\n      <tr><td>Degrees</td><td></td></tr>\n      <tr><td>DMS</td><td></td></tr>\n        ", "timestamp": null, "begin": null, "end": null, "altitudeMode": "relativeToGround", "tessellate": -1, "extrude": 1, "visibility": 1, "drawOrder": null, "icon": null }, "geometry": { "type": "Point", "coordinates": [ 106.928479, 13.460607, 0.0 ] } },
{ "type": "Feature", "properties": { "Name": "6", "description": "<br><br><br>\n    <table border=\"1\" padding=\"0\">\n      <tr><td>Degrees</td><td></td></tr>\n      <tr><td>DMS</td><td></td></tr>\n        ", "timestamp": null, "begin": null, "end": null, "altitudeMode": "relativeToGround", "tessellate": -1, "extrude": 1, "visibility": 1, "drawOrder": null, "icon": null }, "geometry": { "type": "Point", "coordinates": [ 106.933899, 13.460655, 0.0 ] } },
{ "type": "Feature", "properties": { "Name": "29", "description": "<br><br><br>\n    <table border=\"1\" padding=\"0\">\n      <tr><td>Degrees</td><td></td></tr>\n      <tr><td>DMS</td><td></td></tr>\n        ", "timestamp": null, "begin": null, "end": null, "altitudeMode": "relativeToGround", "tessellate": -1, "extrude": 1, "visibility": 1, "drawOrder": null, "icon": null }, "geometry": { "type": "Point", "coordinates": [ 106.944758, 13.460463, 0.0 ] } },
{ "type": "Feature", "properties": { "Name": "2", "description": "<br><br><br>\n    <table border=\"1\" padding=\"0\">\n      <tr><td>Degrees</td><td></td></tr>\n      <tr><td>DMS</td><td></td></tr>\n        ", "timestamp": null, "begin": null, "end": null, "altitudeMode": "relativeToGround", "tessellate": -1, "extrude": 1, "visibility": 1, "drawOrder": null, "icon": null }, "geometry": { "type": "Point", "coordinates": [ 106.938536, 13.460655, 0.0 ] } },
{ "type": "Feature", "properties": { "Name": "2", "description": "<br><br><br>\n    <table border=\"1\" padding=\"0\">\n      <tr><td>Degrees</td><td></td></tr>\n      <tr><td>DMS</td><td></td></tr>\n        ", "timestamp": null, "begin": null, "end": null, "altitudeMode": "relativeToGround", "tessellate": -1, "extrude": 1, "visibility": 1, "drawOrder": null, "icon": null }, "geometry": { "type": "Point", "coordinates": [ 106.868366, 13.391152, 0.0 ] } },
{ "type": "Feature", "properties": { "Name": "3", "description": "<br><br><br>\n    <table border=\"1\" padding=\"0\">\n      <tr><td>Degrees</td><td></td></tr>\n      <tr><td>DMS</td><td></td></tr>\n        ", "timestamp": null, "begin": null, "end": null, "altitudeMode": "relativeToGround", "tessellate": -1, "extrude": 1, "visibility": 1, "drawOrder": null, "icon": null }, "geometry": { "type": "Point", "coordinates": [ 106.868366, 13.385424, 0.0 ] } },
{ "type": "Feature", "properties": { "Name": "4", "description": "<br><br><br>\n    <table border=\"1\" padding=\"0\">\n      <tr><td>Degrees</td><td></td></tr>\n      <tr><td>DMS</td><td></td></tr>\n        ", "timestamp": null, "begin": null, "end": null, "altitudeMode": "relativeToGround", "tessellate": -1, "extrude": 1, "visibility": 1, "drawOrder": null, "icon": null }, "geometry": { "type": "Point", "coordinates": [ 106.868198, 13.381062, 0.0 ] } },
{ "type": "Feature", "properties": { "Name": "5", "description": "<br><br><br>\n    <table border=\"1\" padding=\"0\">\n      <tr><td>Degrees</td><td></td></tr>\n      <tr><td>DMS</td><td></td></tr>\n        ", "timestamp": null, "begin": null, "end": null, "altitudeMode": "relativeToGround", "tessellate": -1, "extrude": 1, "visibility": 1, "drawOrder": null, "icon": null }, "geometry": { "type": "Point", "coordinates": [ 106.868125, 13.376621, 0.0 ] } },
{ "type": "Feature", "properties": { "Name": "1", "description": "<br><br><br>\n    <table border=\"1\" padding=\"0\">\n      <tr><td>Degrees</td><td></td></tr>\n      <tr><td>DMS</td><td></td></tr>\n        ", "timestamp": null, "begin": null, "end": null, "altitudeMode": "relativeToGround", "tessellate": -1, "extrude": 1, "visibility": 1, "drawOrder": null, "icon": null }, "geometry": { "type": "Point", "coordinates": [ 106.868529, 13.397767, 0.0 ] } },
{ "type": "Feature", "properties": { "Name": "6", "description": "<br><br><br>\n    <table border=\"1\" padding=\"0\">\n      <tr><td>Degrees</td><td></td></tr>\n      <tr><td>DMS</td><td></td></tr>\n        ", "timestamp": null, "begin": null, "end": null, "altitudeMode": "relativeToGround", "tessellate": -1, "extrude": 1, "visibility": 1, "drawOrder": null, "icon": null }, "geometry": { "type": "Point", "coordinates": [ 106.863913, 13.397721, 0.0 ] } },
{ "type": "Feature", "properties": { "Name": "7", "description": "<br><br><br>\n    <table border=\"1\" padding=\"0\">\n      <tr><td>Degrees</td><td></td></tr>\n      <tr><td>DMS</td><td></td></tr>\n        ", "timestamp": null, "begin": null, "end": null, "altitudeMode": "relativeToGround", "tessellate": -1, "extrude": 1, "visibility": 1, "drawOrder": null, "icon": null }, "geometry": { "type": "Point", "coordinates": [ 106.863746, 13.391163, 0.0 ] } },
{ "type": "Feature", "properties": { "Name": "8", "description": "<br><br><br>\n    <table border=\"1\" padding=\"0\">\n      <tr><td>Degrees</td><td></td></tr>\n      <tr><td>DMS</td><td></td></tr>\n        ", "timestamp": null, "begin": null, "end": null, "altitudeMode": "relativeToGround", "tessellate": -1, "extrude": 1, "visibility": 1, "drawOrder": null, "icon": null }, "geometry": { "type": "Point", "coordinates": [ 106.863687, 13.385388, 0.0 ] } },
{ "type": "Feature", "properties": { "Name": "9", "description": "<br><br><br>\n    <table border=\"1\" padding=\"0\">\n      <tr><td>Degrees</td><td></td></tr>\n      <tr><td>DMS</td><td></td></tr>\n        ", "timestamp": null, "begin": null, "end": null, "altitudeMode": "relativeToGround", "tessellate": -1, "extrude": 1, "visibility": 1, "drawOrder": null, "icon": null }, "geometry": { "type": "Point", "coordinates": [ 106.863649, 13.381012, 0.0 ] } },
{ "type": "Feature", "properties": { "Name": "10", "description": "<br><br><br>\n    <table border=\"1\" padding=\"0\">\n      <tr><td>Degrees</td><td></td></tr>\n      <tr><td>DMS</td><td></td></tr>\n        ", "timestamp": null, "begin": null, "end": null, "altitudeMode": "relativeToGround", "tessellate": -1, "extrude": 1, "visibility": 1, "drawOrder": null, "icon": null }, "geometry": { "type": "Point", "coordinates": [ 106.864037, 13.375527, 0.0 ] } },
{ "type": "Feature", "properties": { "Name": "11", "description": "<br><br><br>\n    <table border=\"1\" padding=\"0\">\n      <tr><td>Degrees</td><td></td></tr>\n      <tr><td>DMS</td><td></td></tr>\n        ", "timestamp": null, "begin": null, "end": null, "altitudeMode": "relativeToGround", "tessellate": -1, "extrude": 1, "visibility": 1, "drawOrder": null, "icon": null }, "geometry": { "type": "Point", "coordinates": [ 106.85989, 13.397845, 0.0 ] } },
{ "type": "Feature", "properties": { "Name": "12", "description": "<br><br><br>\n    <table border=\"1\" padding=\"0\">\n      <tr><td>Degrees</td><td></td></tr>\n      <tr><td>DMS</td><td></td></tr>\n        ", "timestamp": null, "begin": null, "end": null, "altitudeMode": "relativeToGround", "tessellate": -1, "extrude": 1, "visibility": 1, "drawOrder": null, "icon": null }, "geometry": { "type": "Point", "coordinates": [ 106.859721, 13.391161, 0.0 ] } },
{ "type": "Feature", "properties": { "Name": "13", "description": "<br><br><br>\n    <table border=\"1\" padding=\"0\">\n      <tr><td>Degrees</td><td></td></tr>\n      <tr><td>DMS</td><td></td></tr>\n        ", "timestamp": null, "begin": null, "end": null, "altitudeMode": "relativeToGround", "tessellate": -1, "extrude": 1, "visibility": 1, "drawOrder": null, "icon": null }, "geometry": { "type": "Point", "coordinates": [ 106.859696, 13.385449, 0.0 ] } },
{ "type": "Feature", "properties": { "Name": "14", "description": "<br><br><br>\n    <table border=\"1\" padding=\"0\">\n      <tr><td>Degrees</td><td></td></tr>\n      <tr><td>DMS</td><td></td></tr>\n        ", "timestamp": null, "begin": null, "end": null, "altitudeMode": "relativeToGround", "tessellate": -1, "extrude": 1, "visibility": 1, "drawOrder": null, "icon": null }, "geometry": { "type": "Point", "coordinates": [ 106.859531, 13.381056, 0.0 ] } },
{ "type": "Feature", "properties": { "Name": "15", "description": "<br><br><br>\n    <table border=\"1\" padding=\"0\">\n      <tr><td>Degrees</td><td></td></tr>\n      <tr><td>DMS</td><td></td></tr>\n        ", "timestamp": null, "begin": null, "end": null, "altitudeMode": "relativeToGround", "tessellate": -1, "extrude": 1, "visibility": 1, "drawOrder": null, "icon": null }, "geometry": { "type": "Point", "coordinates": [ 106.859503, 13.375527, 0.0 ] } },
{ "type": "Feature", "properties": { "Name": "16", "description": "<br><br><br>\n    <table border=\"1\" padding=\"0\">\n      <tr><td>Degrees</td><td></td></tr>\n      <tr><td>DMS</td><td></td></tr>\n        ", "timestamp": null, "begin": null, "end": null, "altitudeMode": "relativeToGround", "tessellate": -1, "extrude": 1, "visibility": 1, "drawOrder": null, "icon": null }, "geometry": { "type": "Point", "coordinates": [ 106.855304, 13.397782, 0.0 ] } },
{ "type": "Feature", "properties": { "Name": "17", "description": "<br><br><br>\n    <table border=\"1\" padding=\"0\">\n      <tr><td>Degrees</td><td></td></tr>\n      <tr><td>DMS</td><td></td></tr>\n        ", "timestamp": null, "begin": null, "end": null, "altitudeMode": "relativeToGround", "tessellate": -1, "extrude": 1, "visibility": 1, "drawOrder": null, "icon": null }, "geometry": { "type": "Point", "coordinates": [ 106.85515, 13.391166, 0.0 ] } },
{ "type": "Feature", "properties": { "Name": "18", "description": "<br><br><br>\n    <table border=\"1\" padding=\"0\">\n      <tr><td>Degrees</td><td></td></tr>\n      <tr><td>DMS</td><td></td></tr>\n        ", "timestamp": null, "begin": null, "end": null, "altitudeMode": "relativeToGround", "tessellate": -1, "extrude": 1, "visibility": 1, "drawOrder": null, "icon": null }, "geometry": { "type": "Point", "coordinates": [ 106.855015, 13.385482, 0.0 ] } },
{ "type": "Feature", "properties": { "Name": "19", "description": "<br><br><br>\n    <table border=\"1\" padding=\"0\">\n      <tr><td>Degrees</td><td></td></tr>\n      <tr><td>DMS</td><td></td></tr>\n        ", "timestamp": null, "begin": null, "end": null, "altitudeMode": "relativeToGround", "tessellate": -1, "extrude": 1, "visibility": 1, "drawOrder": null, "icon": null }, "geometry": { "type": "Point", "coordinates": [ 106.855015, 13.381197, 0.0 ] } },
{ "type": "Feature", "properties": { "Name": "20", "description": "<br><br><br>\n    <table border=\"1\" padding=\"0\">\n      <tr><td>Degrees</td><td></td></tr>\n      <tr><td>DMS</td><td></td></tr>\n        ", "timestamp": null, "begin": null, "end": null, "altitudeMode": "relativeToGround", "tessellate": -1, "extrude": 1, "visibility": 1, "drawOrder": null, "icon": null }, "geometry": { "type": "Point", "coordinates": [ 106.85479, 13.375566, 0.0 ] } },
{ "type": "Feature", "properties": { "Name": "21", "description": "<br><br><br>\n    <table border=\"1\" padding=\"0\">\n      <tr><td>Degrees</td><td></td></tr>\n      <tr><td>DMS</td><td></td></tr>\n        ", "timestamp": null, "begin": null, "end": null, "altitudeMode": "relativeToGround", "tessellate": -1, "extrude": 1, "visibility": 1, "drawOrder": null, "icon": null }, "geometry": { "type": "Point", "coordinates": [ 106.850528, 13.39791, 0.0 ] } },
{ "type": "Feature", "properties": { "Name": "22", "description": "<br><br><br>\n    <table border=\"1\" padding=\"0\">\n      <tr><td>Degrees</td><td></td></tr>\n      <tr><td>DMS</td><td></td></tr>\n        ", "timestamp": null, "begin": null, "end": null, "altitudeMode": "relativeToGround", "tessellate": -1, "extrude": 1, "visibility": 1, "drawOrder": null, "icon": null }, "geometry": { "type": "Point", "coordinates": [ 106.850454, 13.391297, 0.0 ] } },
{ "type": "Feature", "properties": { "Name": "23", "description": "<br><br><br>\n    <table border=\"1\" padding=\"0\">\n      <tr><td>Degrees</td><td></td></tr>\n      <tr><td>DMS</td><td></td></tr>\n        ", "timestamp": null, "begin": null, "end": null, "altitudeMode": "relativeToGround", "tessellate": -1, "extrude": 1, "visibility": 1, "drawOrder": null, "icon": null }, "geometry": { "type": "Point", "coordinates": [ 106.850206, 13.385547, 0.0 ] } },
{ "type": "Feature", "properties": { "Name": "24", "description": "<br><br><br>\n    <table border=\"1\" padding=\"0\">\n      <tr><td>Degrees</td><td></td></tr>\n      <tr><td>DMS</td><td></td></tr>\n        ", "timestamp": null, "begin": null, "end": null, "altitudeMode": "relativeToGround", "tessellate": -1, "extrude": 1, "visibility": 1, "drawOrder": null, "icon": null }, "geometry": { "type": "Point", "coordinates": [ 106.850234, 13.381184, 0.0 ] } },
{ "type": "Feature", "properties": { "Name": "25", "description": "<br><br><br>\n    <table border=\"1\" padding=\"0\">\n      <tr><td>Degrees</td><td></td></tr>\n      <tr><td>DMS</td><td></td></tr>\n        ", "timestamp": null, "begin": null, "end": null, "altitudeMode": "relativeToGround", "tessellate": -1, "extrude": 1, "visibility": 1, "drawOrder": null, "icon": null }, "geometry": { "type": "Point", "coordinates": [ 106.850283, 13.376611, 0.0 ] } },
{ "type": "Feature", "properties": { "Name": "27", "description": "<br><br><br>\n    <table border=\"1\" padding=\"0\">\n      <tr><td>Degrees</td><td></td></tr>\n      <tr><td>DMS</td><td></td></tr>\n        ", "timestamp": null, "begin": null, "end": null, "altitudeMode": "relativeToGround", "tessellate": -1, "extrude": 1, "visibility": 1, "drawOrder": null, "icon": null }, "geometry": { "type": "Point", "coordinates": [ 106.845686, 13.397881, 0.0 ] } },
{ "type": "Feature", "properties": { "Name": "28", "description": "<br><br><br>\n    <table border=\"1\" padding=\"0\">\n      <tr><td>Degrees</td><td></td></tr>\n      <tr><td>DMS</td><td></td></tr>\n        ", "timestamp": null, "begin": null, "end": null, "altitudeMode": "relativeToGround", "tessellate": -1, "extrude": 1, "visibility": 1, "drawOrder": null, "icon": null }, "geometry": { "type": "Point", "coordinates": [ 106.846671, 13.391189, 0.0 ] } },
{ "type": "Feature", "properties": { "Name": "29", "description": "<br><br><br>\n    <table border=\"1\" padding=\"0\">\n      <tr><td>Degrees</td><td></td></tr>\n      <tr><td>DMS</td><td></td></tr>\n        ", "timestamp": null, "begin": null, "end": null, "altitudeMode": "relativeToGround", "tessellate": -1, "extrude": 1, "visibility": 1, "drawOrder": null, "icon": null }, "geometry": { "type": "Point", "coordinates": [ 106.846592, 13.385611, 0.0 ] } },
{ "type": "Feature", "properties": { "Name": "30", "description": "<br><br><br>\n    <table border=\"1\" padding=\"0\">\n      <tr><td>Degrees</td><td></td></tr>\n      <tr><td>DMS</td><td></td></tr>\n        ", "timestamp": null, "begin": null, "end": null, "altitudeMode": "relativeToGround", "tessellate": -1, "extrude": 1, "visibility": 1, "drawOrder": null, "icon": null }, "geometry": { "type": "Point", "coordinates": [ 106.846314, 13.381271, 0.0 ] } },
{ "type": "Feature", "properties": { "Name": "31", "description": "<br><br><br>\n    <table border=\"1\" padding=\"0\">\n      <tr><td>Degrees</td><td></td></tr>\n      <tr><td>DMS</td><td></td></tr>\n        ", "timestamp": null, "begin": null, "end": null, "altitudeMode": "relativeToGround", "tessellate": -1, "extrude": 1, "visibility": 1, "drawOrder": null, "icon": null }, "geometry": { "type": "Point", "coordinates": [ 106.845998, 13.376641, 0.0 ] } },
{ "type": "Feature", "properties": { "Name": "33", "description": "<br><br><br>\n    <table border=\"1\" padding=\"0\">\n      <tr><td>Degrees</td><td></td></tr>\n      <tr><td>DMS</td><td></td></tr>\n        ", "timestamp": null, "begin": null, "end": null, "altitudeMode": "relativeToGround", "tessellate": -1, "extrude": 1, "visibility": 1, "drawOrder": null, "icon": null }, "geometry": { "type": "Point", "coordinates": [ 106.841711, 13.398003, 0.0 ] } },
{ "type": "Feature", "properties": { "Name": "1", "description": "<br><br><br>\n    <table border=\"1\" padding=\"0\">\n      <tr><td>Degrees</td><td></td></tr>\n      <tr><td>DMS</td><td></td></tr>\n        ", "timestamp": null, "begin": null, "end": null, "altitudeMode": "relativeToGround", "tessellate": -1, "extrude": 1, "visibility": 1, "drawOrder": null, "icon": null }, "geometry": { "type": "Point", "coordinates": [ 106.794721, 13.399604, 0.0 ] } },
{ "type": "Feature", "properties": { "Name": "2", "description": "<br><br><br>\n    <table border=\"1\" padding=\"0\">\n      <tr><td>Degrees</td><td></td></tr>\n      <tr><td>DMS</td><td></td></tr>\n        ", "timestamp": null, "begin": null, "end": null, "altitudeMode": "relativeToGround", "tessellate": -1, "extrude": 1, "visibility": 1, "drawOrder": null, "icon": null }, "geometry": { "type": "Point", "coordinates": [ 106.794608, 13.395081, 0.0 ] } },
{ "type": "Feature", "properties": { "Name": "3", "description": "<br><br><br>\n    <table border=\"1\" padding=\"0\">\n      <tr><td>Degrees</td><td></td></tr>\n      <tr><td>DMS</td><td></td></tr>\n        ", "timestamp": null, "begin": null, "end": null, "altitudeMode": "relativeToGround", "tessellate": -1, "extrude": 1, "visibility": 1, "drawOrder": null, "icon": null }, "geometry": { "type": "Point", "coordinates": [ 106.794704, 13.3906, 0.0 ] } },
{ "type": "Feature", "properties": { "Name": "4", "description": "<br><br><br>\n    <table border=\"1\" padding=\"0\">\n      <tr><td>Degrees</td><td></td></tr>\n      <tr><td>DMS</td><td></td></tr>\n        ", "timestamp": null, "begin": null, "end": null, "altitudeMode": "relativeToGround", "tessellate": -1, "extrude": 1, "visibility": 1, "drawOrder": null, "icon": null }, "geometry": { "type": "Point", "coordinates": [ 106.794573, 13.386059, 0.0 ] } },
{ "type": "Feature", "properties": { "Name": "5", "description": "<br><br><br>\n    <table border=\"1\" padding=\"0\">\n      <tr><td>Degrees</td><td></td></tr>\n      <tr><td>DMS</td><td></td></tr>\n        ", "timestamp": null, "begin": null, "end": null, "altitudeMode": "relativeToGround", "tessellate": -1, "extrude": 1, "visibility": 1, "drawOrder": null, "icon": null }, "geometry": { "type": "Point", "coordinates": [ 106.794573, 13.381544, 0.0 ] } },
{ "type": "Feature", "properties": { "Name": "6", "description": "<br><br><br>\n    <table border=\"1\" padding=\"0\">\n      <tr><td>Degrees</td><td></td></tr>\n      <tr><td>DMS</td><td></td></tr>\n        ", "timestamp": null, "begin": null, "end": null, "altitudeMode": "relativeToGround", "tessellate": -1, "extrude": 1, "visibility": 1, "drawOrder": null, "icon": null }, "geometry": { "type": "Point", "coordinates": [ 106.794434, 13.37693, 0.0 ] } },
{ "type": "Feature", "properties": { "Name": "7", "description": "<br><br><br>\n    <table border=\"1\" padding=\"0\">\n      <tr><td>Degrees</td><td></td></tr>\n      <tr><td>DMS</td><td></td></tr>\n        ", "timestamp": null, "begin": null, "end": null, "altitudeMode": "relativeToGround", "tessellate": -1, "extrude": 1, "visibility": 1, "drawOrder": null, "icon": null }, "geometry": { "type": "Point", "coordinates": [ 106.794486, 13.372942, 0.0 ] } },
{ "type": "Feature", "properties": { "Name": "8", "description": "<br><br><br>\n    <table border=\"1\" padding=\"0\">\n      <tr><td>Degrees</td><td></td></tr>\n      <tr><td>DMS</td><td></td></tr>\n        ", "timestamp": null, "begin": null, "end": null, "altitudeMode": "relativeToGround", "tessellate": -1, "extrude": 1, "visibility": 1, "drawOrder": null, "icon": null }, "geometry": { "type": "Point", "coordinates": [ 106.790124, 13.399554, 0.0 ] } },
{ "type": "Feature", "properties": { "Name": "9", "description": "<br><br><br>\n    <table border=\"1\" padding=\"0\">\n      <tr><td>Degrees</td><td></td></tr>\n      <tr><td>DMS</td><td></td></tr>\n        ", "timestamp": null, "begin": null, "end": null, "altitudeMode": "relativeToGround", "tessellate": -1, "extrude": 1, "visibility": 1, "drawOrder": null, "icon": null }, "geometry": { "type": "Point", "coordinates": [ 106.790072, 13.395031, 0.0 ] } },
{ "type": "Feature", "properties": { "Name": "10", "description": "<br><br><br>\n    <table border=\"1\" padding=\"0\">\n      <tr><td>Degrees</td><td></td></tr>\n      <tr><td>DMS</td><td></td></tr>\n        ", "timestamp": null, "begin": null, "end": null, "altitudeMode": "relativeToGround", "tessellate": -1, "extrude": 1, "visibility": 1, "drawOrder": null, "icon": null }, "geometry": { "type": "Point", "coordinates": [ 106.790097, 13.390668, 0.0 ] } },
{ "type": "Feature", "properties": { "Name": "11", "description": "<br><br><br>\n    <table border=\"1\" padding=\"0\">\n      <tr><td>Degrees</td><td></td></tr>\n      <tr><td>DMS</td><td></td></tr>\n        ", "timestamp": null, "begin": null, "end": null, "altitudeMode": "relativeToGround", "tessellate": -1, "extrude": 1, "visibility": 1, "drawOrder": null, "icon": null }, "geometry": { "type": "Point", "coordinates": [ 106.790176, 13.386102, 0.0 ] } },
{ "type": "Feature", "properties": { "Name": "12", "description": "<br><br><br>\n    <table border=\"1\" padding=\"0\">\n      <tr><td>Degrees</td><td></td></tr>\n      <tr><td>DMS</td><td></td></tr>\n        ", "timestamp": null, "begin": null, "end": null, "altitudeMode": "relativeToGround", "tessellate": -1, "extrude": 1, "visibility": 1, "drawOrder": null, "icon": null }, "geometry": { "type": "Point", "coordinates": [ 106.790071, 13.381622, 0.0 ] } },
{ "type": "Feature", "properties": { "Name": "13", "description": "<br><br><br>\n    <table border=\"1\" padding=\"0\">\n      <tr><td>Degrees</td><td></td></tr>\n      <tr><td>DMS</td><td></td></tr>\n        ", "timestamp": null, "begin": null, "end": null, "altitudeMode": "relativeToGround", "tessellate": -1, "extrude": 1, "visibility": 1, "drawOrder": null, "icon": null }, "geometry": { "type": "Point", "coordinates": [ 106.790098, 13.376915, 0.0 ] } },
{ "type": "Feature", "properties": { "Name": "14", "description": "<br><br><br>\n    <table border=\"1\" padding=\"0\">\n      <tr><td>Degrees</td><td></td></tr>\n      <tr><td>DMS</td><td></td></tr>\n        ", "timestamp": null, "begin": null, "end": null, "altitudeMode": "relativeToGround", "tessellate": -1, "extrude": 1, "visibility": 1, "drawOrder": null, "icon": null }, "geometry": { "type": "Point", "coordinates": [ 106.789503, 13.372667, 0.0 ] } },
{ "type": "Feature", "properties": { "Name": "15", "description": "<br><br><br>\n    <table border=\"1\" padding=\"0\">\n      <tr><td>Degrees</td><td></td></tr>\n      <tr><td>DMS</td><td></td></tr>\n        ", "timestamp": null, "begin": null, "end": null, "altitudeMode": "relativeToGround", "tessellate": -1, "extrude": 1, "visibility": 1, "drawOrder": null, "icon": null }, "geometry": { "type": "Point", "coordinates": [ 106.785771, 13.399723, 0.0 ] } },
{ "type": "Feature", "properties": { "Name": "16", "description": "<br><br><br>\n    <table border=\"1\" padding=\"0\">\n      <tr><td>Degrees</td><td></td></tr>\n      <tr><td>DMS</td><td></td></tr>\n        ", "timestamp": null, "begin": null, "end": null, "altitudeMode": "relativeToGround", "tessellate": -1, "extrude": 1, "visibility": 1, "drawOrder": null, "icon": null }, "geometry": { "type": "Point", "coordinates": [ 106.785814, 13.395114, 0.0 ] } },
{ "type": "Feature", "properties": { "Name": "17", "description": "<br><br><br>\n    <table border=\"1\" padding=\"0\">\n      <tr><td>Degrees</td><td></td></tr>\n      <tr><td>DMS</td><td></td></tr>\n        ", "timestamp": null, "begin": null, "end": null, "altitudeMode": "relativeToGround", "tessellate": -1, "extrude": 1, "visibility": 1, "drawOrder": null, "icon": null }, "geometry": { "type": "Point", "coordinates": [ 106.785596, 13.390617, 0.0 ] } },
{ "type": "Feature", "properties": { "Name": "18", "description": "<br><br><br>\n    <table border=\"1\" padding=\"0\">\n      <tr><td>Degrees</td><td></td></tr>\n      <tr><td>DMS</td><td></td></tr>\n        ", "timestamp": null, "begin": null, "end": null, "altitudeMode": "relativeToGround", "tessellate": -1, "extrude": 1, "visibility": 1, "drawOrder": null, "icon": null }, "geometry": { "type": "Point", "coordinates": [ 106.785858, 13.386144, 0.0 ] } },
{ "type": "Feature", "properties": { "Name": "19", "description": "<br><br><br>\n    <table border=\"1\" padding=\"0\">\n      <tr><td>Degrees</td><td></td></tr>\n      <tr><td>DMS</td><td></td></tr>\n        ", "timestamp": null, "begin": null, "end": null, "altitudeMode": "relativeToGround", "tessellate": -1, "extrude": 1, "visibility": 1, "drawOrder": null, "icon": null }, "geometry": { "type": "Point", "coordinates": [ 106.785596, 13.381604, 0.0 ] } },
{ "type": "Feature", "properties": { "Name": "20", "description": "<br><br><br>\n    <table border=\"1\" padding=\"0\">\n      <tr><td>Degrees</td><td></td></tr>\n      <tr><td>DMS</td><td></td></tr>\n        ", "timestamp": null, "begin": null, "end": null, "altitudeMode": "relativeToGround", "tessellate": -1, "extrude": 1, "visibility": 1, "drawOrder": null, "icon": null }, "geometry": { "type": "Point", "coordinates": [ 106.785415, 13.377065, 0.0 ] } },
{ "type": "Feature", "properties": { "Name": "21", "description": "<br><br><br>\n    <table border=\"1\" padding=\"0\">\n      <tr><td>Degrees</td><td></td></tr>\n      <tr><td>DMS</td><td></td></tr>\n        ", "timestamp": null, "begin": null, "end": null, "altitudeMode": "relativeToGround", "tessellate": -1, "extrude": 1, "visibility": 1, "drawOrder": null, "icon": null }, "geometry": { "type": "Point", "coordinates": [ 106.785411, 13.372651, 0.0 ] } },
{ "type": "Feature", "properties": { "Name": "22", "description": "<br><br><br>\n    <table border=\"1\" padding=\"0\">\n      <tr><td>Degrees</td><td></td></tr>\n      <tr><td>DMS</td><td></td></tr>\n        ", "timestamp": null, "begin": null, "end": null, "altitudeMode": "relativeToGround", "tessellate": -1, "extrude": 1, "visibility": 1, "drawOrder": null, "icon": null }, "geometry": { "type": "Point", "coordinates": [ 106.781017, 13.399739, 0.0 ] } },
{ "type": "Feature", "properties": { "Name": "23", "description": "<br><br><br>\n    <table border=\"1\" padding=\"0\">\n      <tr><td>Degrees</td><td></td></tr>\n      <tr><td>DMS</td><td></td></tr>\n        ", "timestamp": null, "begin": null, "end": null, "altitudeMode": "relativeToGround", "tessellate": -1, "extrude": 1, "visibility": 1, "drawOrder": null, "icon": null }, "geometry": { "type": "Point", "coordinates": [ 106.781269, 13.395134, 0.0 ] } },
{ "type": "Feature", "properties": { "Name": "24", "description": "<br><br><br>\n    <table border=\"1\" padding=\"0\">\n      <tr><td>Degrees</td><td></td></tr>\n      <tr><td>DMS</td><td></td></tr>\n        ", "timestamp": null, "begin": null, "end": null, "altitudeMode": "relativeToGround", "tessellate": -1, "extrude": 1, "visibility": 1, "drawOrder": null, "icon": null }, "geometry": { "type": "Point", "coordinates": [ 106.781147, 13.390659, 0.0 ] } },
{ "type": "Feature", "properties": { "Name": "25", "description": "<br><br><br>\n    <table border=\"1\" padding=\"0\">\n      <tr><td>Degrees</td><td></td></tr>\n      <tr><td>DMS</td><td></td></tr>\n        ", "timestamp": null, "begin": null, "end": null, "altitudeMode": "relativeToGround", "tessellate": -1, "extrude": 1, "visibility": 1, "drawOrder": null, "icon": null }, "geometry": { "type": "Point", "coordinates": [ 106.781191, 13.386179, 0.0 ] } },
{ "type": "Feature", "properties": { "Name": "26", "description": "<br><br><br>\n    <table border=\"1\" padding=\"0\">\n      <tr><td>Degrees</td><td></td></tr>\n      <tr><td>DMS</td><td></td></tr>\n        ", "timestamp": null, "begin": null, "end": null, "altitudeMode": "relativeToGround", "tessellate": -1, "extrude": 1, "visibility": 1, "drawOrder": null, "icon": null }, "geometry": { "type": "Point", "coordinates": [ 106.781016, 13.381663, 0.0 ] } },
{ "type": "Feature", "properties": { "Name": "27", "description": "<br><br><br>\n    <table border=\"1\" padding=\"0\">\n      <tr><td>Degrees</td><td></td></tr>\n      <tr><td>DMS</td><td></td></tr>\n        ", "timestamp": null, "begin": null, "end": null, "altitudeMode": "relativeToGround", "tessellate": -1, "extrude": 1, "visibility": 1, "drawOrder": null, "icon": null }, "geometry": { "type": "Point", "coordinates": [ 106.781164, 13.376975, 0.0 ] } },
{ "type": "Feature", "properties": { "Name": "28", "description": "<br><br><br>\n    <table border=\"1\" padding=\"0\">\n      <tr><td>Degrees</td><td></td></tr>\n      <tr><td>DMS</td><td></td></tr>\n        ", "timestamp": null, "begin": null, "end": null, "altitudeMode": "relativeToGround", "tessellate": -1, "extrude": 1, "visibility": 1, "drawOrder": null, "icon": null }, "geometry": { "type": "Point", "coordinates": [ 106.781058, 13.372685, 0.0 ] } },
{ "type": "Feature", "properties": { "Name": "29", "description": "<br><br><br>\n    <table border=\"1\" padding=\"0\">\n      <tr><td>Degrees</td><td></td></tr>\n      <tr><td>DMS</td><td></td></tr>\n        ", "timestamp": null, "begin": null, "end": null, "altitudeMode": "relativeToGround", "tessellate": -1, "extrude": 1, "visibility": 1, "drawOrder": null, "icon": null }, "geometry": { "type": "Point", "coordinates": [ 106.775046, 13.399782, 0.0 ] } },
{ "type": "Feature", "properties": { "Name": "30", "description": "<br><br><br>\n    <table border=\"1\" padding=\"0\">\n      <tr><td>Degrees</td><td></td></tr>\n      <tr><td>DMS</td><td></td></tr>\n        ", "timestamp": null, "begin": null, "end": null, "altitudeMode": "relativeToGround", "tessellate": -1, "extrude": 1, "visibility": 1, "drawOrder": null, "icon": null }, "geometry": { "type": "Point", "coordinates": [ 106.775028, 13.395225, 0.0 ] } },
{ "type": "Feature", "properties": { "Name": "31", "description": "<br><br><br>\n    <table border=\"1\" padding=\"0\">\n      <tr><td>Degrees</td><td></td></tr>\n      <tr><td>DMS</td><td></td></tr>\n        ", "timestamp": null, "begin": null, "end": null, "altitudeMode": "relativeToGround", "tessellate": -1, "extrude": 1, "visibility": 1, "drawOrder": null, "icon": null }, "geometry": { "type": "Point", "coordinates": [ 106.774984, 13.390685, 0.0 ] } },
{ "type": "Feature", "properties": { "Name": "32", "description": "<br><br><br>\n    <table border=\"1\" padding=\"0\">\n      <tr><td>Degrees</td><td></td></tr>\n      <tr><td>DMS</td><td></td></tr>\n        ", "timestamp": null, "begin": null, "end": null, "altitudeMode": "relativeToGround", "tessellate": -1, "extrude": 1, "visibility": 1, "drawOrder": null, "icon": null }, "geometry": { "type": "Point", "coordinates": [ 106.775054, 13.386153, 0.0 ] } },
{ "type": "Feature", "properties": { "Name": "33", "description": "<br><br><br>\n    <table border=\"1\" padding=\"0\">\n      <tr><td>Degrees</td><td></td></tr>\n      <tr><td>DMS</td><td></td></tr>\n        ", "timestamp": null, "begin": null, "end": null, "altitudeMode": "relativeToGround", "tessellate": -1, "extrude": 1, "visibility": 1, "drawOrder": null, "icon": null }, "geometry": { "type": "Point", "coordinates": [ 106.774854, 13.381655, 0.0 ] } },
{ "type": "Feature", "properties": { "Name": "34", "description": "<br><br><br>\n    <table border=\"1\" padding=\"0\">\n      <tr><td>Degrees</td><td></td></tr>\n      <tr><td>DMS</td><td></td></tr>\n        ", "timestamp": null, "begin": null, "end": null, "altitudeMode": "relativeToGround", "tessellate": -1, "extrude": 1, "visibility": 1, "drawOrder": null, "icon": null }, "geometry": { "type": "Point", "coordinates": [ 106.774653, 13.377142, 0.0 ] } },
{ "type": "Feature", "properties": { "Name": "35", "description": "<br><br><br>\n    <table border=\"1\" padding=\"0\">\n      <tr><td>Degrees</td><td></td></tr>\n      <tr><td>DMS</td><td></td></tr>\n        ", "timestamp": null, "begin": null, "end": null, "altitudeMode": "relativeToGround", "tessellate": -1, "extrude": 1, "visibility": 1, "drawOrder": null, "icon": null }, "geometry": { "type": "Point", "coordinates": [ 106.774679, 13.373202, 0.0 ] } },
{ "type": "Feature", "properties": { "Name": "38", "description": "<br><br><br>\n    <table border=\"1\" padding=\"0\">\n      <tr><td>Degrees</td><td></td></tr>\n      <tr><td>DMS</td><td></td></tr>\n        ", "timestamp": null, "begin": null, "end": null, "altitudeMode": "relativeToGround", "tessellate": -1, "extrude": 1, "visibility": 1, "drawOrder": null, "icon": null }, "geometry": { "type": "Point", "coordinates": [ 106.768335, 13.390726, 0.0 ] } },
{ "type": "Feature", "properties": { "Name": "39", "description": "<br><br><br>\n    <table border=\"1\" padding=\"0\">\n      <tr><td>Degrees</td><td></td></tr>\n      <tr><td>DMS</td><td></td></tr>\n        ", "timestamp": null, "begin": null, "end": null, "altitudeMode": "relativeToGround", "tessellate": -1, "extrude": 1, "visibility": 1, "drawOrder": null, "icon": null }, "geometry": { "type": "Point", "coordinates": [ 106.768162, 13.386262, 0.0 ] } },
{ "type": "Feature", "properties": { "Name": "40", "description": "<br><br><br>\n    <table border=\"1\" padding=\"0\">\n      <tr><td>Degrees</td><td></td></tr>\n      <tr><td>DMS</td><td></td></tr>\n        ", "timestamp": null, "begin": null, "end": null, "altitudeMode": "relativeToGround", "tessellate": -1, "extrude": 1, "visibility": 1, "drawOrder": null, "icon": null }, "geometry": { "type": "Point", "coordinates": [ 106.768161, 13.38168, 0.0 ] } },
{ "type": "Feature", "properties": { "Name": "41", "description": "<br><br><br>\n    <table border=\"1\" padding=\"0\">\n      <tr><td>Degrees</td><td></td></tr>\n      <tr><td>DMS</td><td></td></tr>\n        ", "timestamp": null, "begin": null, "end": null, "altitudeMode": "relativeToGround", "tessellate": -1, "extrude": 1, "visibility": 1, "drawOrder": null, "icon": null }, "geometry": { "type": "Point", "coordinates": [ 106.768161, 13.377431, 0.0 ] } },
{ "type": "Feature", "properties": { "Name": "42", "description": "<br><br><br>\n    <table border=\"1\" padding=\"0\">\n      <tr><td>Degrees</td><td></td></tr>\n      <tr><td>DMS</td><td></td></tr>\n        ", "timestamp": null, "begin": null, "end": null, "altitudeMode": "relativeToGround", "tessellate": -1, "extrude": 1, "visibility": 1, "drawOrder": null, "icon": null }, "geometry": { "type": "Point", "coordinates": [ 106.768018, 13.373414, 0.0 ] } },
{ "type": "Feature", "properties": { "Name": "36", "description": "<br><br><br>\n    <table border=\"1\" padding=\"0\">\n      <tr><td>Degrees</td><td></td></tr>\n      <tr><td>DMS</td><td></td></tr>\n        ", "timestamp": null, "begin": null, "end": null, "altitudeMode": "relativeToGround", "tessellate": -1, "extrude": 1, "visibility": 1, "drawOrder": null, "icon": null }, "geometry": { "type": "Point", "coordinates": [ 106.769792, 13.398376, 0.0 ] } },
{ "type": "Feature", "properties": { "Name": "37", "description": "<br><br><br>\n    <table border=\"1\" padding=\"0\">\n      <tr><td>Degrees</td><td></td></tr>\n      <tr><td>DMS</td><td></td></tr>\n        ", "timestamp": null, "begin": null, "end": null, "altitudeMode": "relativeToGround", "tessellate": -1, "extrude": 1, "visibility": 1, "drawOrder": null, "icon": null }, "geometry": { "type": "Point", "coordinates": [ 106.769551, 13.395649, 0.0 ] } },
{ "type": "Feature", "properties": { "Name": "26", "description": "<br><br><br>\n    <table border=\"1\" padding=\"0\">\n      <tr><td>Degrees</td><td></td></tr>\n      <tr><td>DMS</td><td></td></tr>\n        ", "timestamp": null, "begin": null, "end": null, "altitudeMode": "relativeToGround", "tessellate": -1, "extrude": 1, "visibility": 1, "drawOrder": null, "icon": null }, "geometry": { "type": "Point", "coordinates": [ 106.850283, 13.373039, 0.0 ] } },
{ "type": "Feature", "properties": { "Name": "32", "description": "<br><br><br>\n    <table border=\"1\" padding=\"0\">\n      <tr><td>Degrees</td><td></td></tr>\n      <tr><td>DMS</td><td></td></tr>\n        ", "timestamp": null, "begin": null, "end": null, "altitudeMode": "relativeToGround", "tessellate": -1, "extrude": 1, "visibility": 1, "drawOrder": null, "icon": null }, "geometry": { "type": "Point", "coordinates": [ 106.845998, 13.373069, 0.0 ] } },
{ "type": "Feature", "properties": { "Name": "34", "description": "<br><br><br>\n    <table border=\"1\" padding=\"0\">\n      <tr><td>Degrees</td><td></td></tr>\n      <tr><td>DMS</td><td></td></tr>\n        ", "timestamp": null, "begin": null, "end": null, "altitudeMode": "relativeToGround", "tessellate": -1, "extrude": 1, "visibility": 1, "drawOrder": null, "icon": null }, "geometry": { "type": "Point", "coordinates": [ 106.840632, 13.391402, 0.0 ] } },
{ "type": "Feature", "properties": { "Name": "35", "description": "<br><br><br>\n    <table border=\"1\" padding=\"0\">\n      <tr><td>Degrees</td><td></td></tr>\n      <tr><td>DMS</td><td></td></tr>\n        ", "timestamp": null, "begin": null, "end": null, "altitudeMode": "relativeToGround", "tessellate": -1, "extrude": 1, "visibility": 1, "drawOrder": null, "icon": null }, "geometry": { "type": "Point", "coordinates": [ 106.840498, 13.385378, 0.0 ] } },
{ "type": "Feature", "properties": { "Name": "36", "description": "<br><br><br>\n    <table border=\"1\" padding=\"0\">\n      <tr><td>Degrees</td><td></td></tr>\n      <tr><td>DMS</td><td></td></tr>\n        ", "timestamp": null, "begin": null, "end": null, "altitudeMode": "relativeToGround", "tessellate": -1, "extrude": 1, "visibility": 1, "drawOrder": null, "icon": null }, "geometry": { "type": "Point", "coordinates": [ 106.840496, 13.381402, 0.0 ] } }
]
}
